<?xml version="1.0" encoding="UTF-8"?>
<gpx version="1.1" creator="TrackCam" xmlns="http://www.topografix.com/GPX/1/1">
<trk><trkseg>
<trkpt lat="43.3163504" lon="-3.0172585"><time>2026-09-13T11:40:02Z</time></trkpt>
<trkpt lat="43.316365" lon="-3.0172208"><time>2026-09-13T11:40:04Z</time></trkpt>
<trkpt lat="43.3163721" lon="-3.0172045"><time>2026-09-13T11:40:05Z</time></trkpt>
<trkpt lat="43.3163769" lon="-3.0171726"><time>2026-09-13T11:40:07Z</time></trkpt>
<trkpt lat="43.3163765" lon="-3.017141"><time>2026-09-13T11:40:09Z</time></trkpt>
<trkpt lat="43.316371" lon="-3.0171362"><time>2026-09-13T11:40:12Z</time></trkpt>
<trkpt lat="43.3163601" lon="-3.0171421"><time>2026-09-13T11:40:14Z</time></trkpt>
<trkpt lat="43.316359" lon="-3.0171506"><time>2026-09-13T11:40:16Z</time></trkpt>
<trkpt lat="43.3163685" lon="-3.0171516"><time>2026-09-13T11:40:18Z</time></trkpt>
<trkpt lat="43.3163757" lon="-3.0171541"><time>2026-09-13T11:40:20Z</time></trkpt>
<trkpt lat="43.3163796" lon="-3.0171708"><time>2026-09-13T11:40:21Z</time></trkpt>
<trkpt lat="43.3163814" lon="-3.0171676"><time>2026-09-13T11:40:23Z</time></trkpt>
<trkpt lat="43.3163801" lon="-3.0171724"><time>2026-09-13T11:40:26Z</time></trkpt>
<trkpt lat="43.3163799" lon="-3.0171801"><time>2026-09-13T11:40:28Z</time></trkpt>
<trkpt lat="43.3163855" lon="-3.01717"><time>2026-09-13T11:40:29Z</time></trkpt>
<trkpt lat="43.3163857" lon="-3.0171844"><time>2026-09-13T11:40:32Z</time></trkpt>
<trkpt lat="43.3163923" lon="-3.0171945"><time>2026-09-13T11:40:33Z</time></trkpt>
<trkpt lat="43.3163962" lon="-3.0171854"><time>2026-09-13T11:40:35Z</time></trkpt>
<trkpt lat="43.3163971" lon="-3.0171847"><time>2026-09-13T11:40:37Z</time></trkpt>
<trkpt lat="43.3164009" lon="-3.0171896"><time>2026-09-13T11:40:40Z</time></trkpt>
<trkpt lat="43.3164056" lon="-3.0171958"><time>2026-09-13T11:40:42Z</time></trkpt>
<trkpt lat="43.316408" lon="-3.0171885"><time>2026-09-13T11:40:44Z</time></trkpt>
<trkpt lat="43.31641" lon="-3.0171921"><time>2026-09-13T11:40:46Z</time></trkpt>
<trkpt lat="43.3164116" lon="-3.0171941"><time>2026-09-13T11:40:48Z</time></trkpt>
<trkpt lat="43.3164141" lon="-3.0171802"><time>2026-09-13T11:40:49Z</time></trkpt>
<trkpt lat="43.3164136" lon="-3.0171806"><time>2026-09-13T11:40:51Z</time></trkpt>
<trkpt lat="43.3164127" lon="-3.017183"><time>2026-09-13T11:40:54Z</time></trkpt>
<trkpt lat="43.3164126" lon="-3.0171852"><time>2026-09-13T11:40:55Z</time></trkpt>
<trkpt lat="43.3164116" lon="-3.0171753"><time>2026-09-13T11:40:58Z</time></trkpt>
<trkpt lat="43.3164096" lon="-3.0171742"><time>2026-09-13T11:41:00Z</time></trkpt>
<trkpt lat="43.3164057" lon="-3.017174"><time>2026-09-13T11:41:02Z</time></trkpt>
<trkpt lat="43.3164019" lon="-3.0171572"><time>2026-09-13T11:41:03Z</time></trkpt>
<trkpt lat="43.3164018" lon="-3.0171562"><time>2026-09-13T11:41:05Z</time></trkpt>
<trkpt lat="43.3163969" lon="-3.0171535"><time>2026-09-13T11:41:08Z</time></trkpt>
<trkpt lat="43.3163965" lon="-3.0171387"><time>2026-09-13T11:41:10Z</time></trkpt>
<trkpt lat="43.3163949" lon="-3.0171339"><time>2026-09-13T11:41:12Z</time></trkpt>
<trkpt lat="43.3163922" lon="-3.0171286"><time>2026-09-13T11:41:14Z</time></trkpt>
<trkpt lat="43.3163782" lon="-3.0171277"><time>2026-09-13T11:41:15Z</time></trkpt>
<trkpt lat="43.3163721" lon="-3.0171215"><time>2026-09-13T11:41:17Z</time></trkpt>
<trkpt lat="43.3163727" lon="-3.017121"><time>2026-09-13T11:41:19Z</time></trkpt>
<trkpt lat="43.3163608" lon="-3.0171232"><time>2026-09-13T11:41:21Z</time></trkpt>
<trkpt lat="43.3163581" lon="-3.0171197"><time>2026-09-13T11:41:24Z</time></trkpt>
<trkpt lat="43.3163559" lon="-3.0171183"><time>2026-09-13T11:41:26Z</time></trkpt>
<trkpt lat="43.3163474" lon="-3.0171209"><time>2026-09-13T11:41:27Z</time></trkpt>
<trkpt lat="43.3163508" lon="-3.0171171"><time>2026-09-13T11:41:30Z</time></trkpt>
<trkpt lat="43.3163446" lon="-3.0171196"><time>2026-09-13T11:41:33Z</time></trkpt>
<trkpt lat="43.3163404" lon="-3.0171202"><time>2026-09-13T11:41:34Z</time></trkpt>
<trkpt lat="43.3163435" lon="-3.0171164"><time>2026-09-13T11:41:38Z</time></trkpt>
<trkpt lat="43.3163397" lon="-3.017114"><time>2026-09-13T11:41:40Z</time></trkpt>
<trkpt lat="43.3163417" lon="-3.0171083"><time>2026-09-13T11:41:41Z</time></trkpt>
<trkpt lat="43.3163423" lon="-3.0171066"><time>2026-09-13T11:41:44Z</time></trkpt>
<trkpt lat="43.3163399" lon="-3.0171024"><time>2026-09-13T11:41:46Z</time></trkpt>
<trkpt lat="43.3163417" lon="-3.017097"><time>2026-09-13T11:41:48Z</time></trkpt>
<trkpt lat="43.3163336" lon="-3.0170878"><time>2026-09-13T11:41:51Z</time></trkpt>
<trkpt lat="43.3163267" lon="-3.0170702"><time>2026-09-13T11:41:52Z</time></trkpt>
<trkpt lat="43.3163226" lon="-3.0170635"><time>2026-09-13T11:41:55Z</time></trkpt>
<trkpt lat="43.3163161" lon="-3.0170519"><time>2026-09-13T11:41:57Z</time></trkpt>
<trkpt lat="43.3163107" lon="-3.0170415"><time>2026-09-13T11:42:01Z</time></trkpt>
<trkpt lat="43.3163094" lon="-3.0170398"><time>2026-09-13T11:42:03Z</time></trkpt>
<trkpt lat="43.3161478" lon="-3.016562"><time>2026-09-13T11:42:06Z</time></trkpt>
<trkpt lat="43.3161009" lon="-3.0164191"><time>2026-09-13T11:42:08Z</time></trkpt>
<trkpt lat="43.3160519" lon="-3.0161623"><time>2026-09-13T11:42:10Z</time></trkpt>
<trkpt lat="43.3160337" lon="-3.016106"><time>2026-09-13T11:42:12Z</time></trkpt>
<trkpt lat="43.3160253" lon="-3.0160694"><time>2026-09-13T11:42:14Z</time></trkpt>
<trkpt lat="43.3159922" lon="-3.0160574"><time>2026-09-13T11:42:18Z</time></trkpt>
<trkpt lat="43.3159802" lon="-3.0160564"><time>2026-09-13T11:42:20Z</time></trkpt>
<trkpt lat="43.3159782" lon="-3.0160571"><time>2026-09-13T11:42:22Z</time></trkpt>
<trkpt lat="43.3159779" lon="-3.0160576"><time>2026-09-13T11:42:23Z</time></trkpt>
<trkpt lat="43.3159542" lon="-3.0160631"><time>2026-09-13T11:42:25Z</time></trkpt>
<trkpt lat="43.3158436" lon="-3.0160798"><time>2026-09-13T11:42:28Z</time></trkpt>
<trkpt lat="43.3156676" lon="-3.0161292"><time>2026-09-13T11:42:30Z</time></trkpt>
<trkpt lat="43.3153512" lon="-3.0162358"><time>2026-09-13T11:42:32Z</time></trkpt>
<trkpt lat="43.3152845" lon="-3.0162882"><time>2026-09-13T11:42:34Z</time></trkpt>
<trkpt lat="43.3152506" lon="-3.016344"><time>2026-09-13T11:42:36Z</time></trkpt>
<trkpt lat="43.3151529" lon="-3.0164378"><time>2026-09-13T11:42:38Z</time></trkpt>
<trkpt lat="43.3151442" lon="-3.0164419"><time>2026-09-13T11:42:41Z</time></trkpt>
<trkpt lat="43.3151405" lon="-3.016445"><time>2026-09-13T11:42:43Z</time></trkpt>
<trkpt lat="43.3151405" lon="-3.016445"><time>2026-09-13T11:42:43Z</time></trkpt>
<trkpt lat="43.3151396" lon="-3.0164445"><time>2026-09-13T11:42:46Z</time></trkpt>
<trkpt lat="43.3151344" lon="-3.0164094"><time>2026-09-13T11:42:47Z</time></trkpt>
<trkpt lat="43.3151366" lon="-3.0164351"><time>2026-09-13T11:42:49Z</time></trkpt>
<trkpt lat="43.3151383" lon="-3.0164482"><time>2026-09-13T11:42:52Z</time></trkpt>
<trkpt lat="43.3151457" lon="-3.0164849"><time>2026-09-13T11:42:54Z</time></trkpt>
<trkpt lat="43.315151" lon="-3.0165009"><time>2026-09-13T11:42:56Z</time></trkpt>
<trkpt lat="43.3151542" lon="-3.0165096"><time>2026-09-13T11:42:58Z</time></trkpt>
<trkpt lat="43.3151702" lon="-3.0166511"><time>2026-09-13T11:42:59Z</time></trkpt>
<trkpt lat="43.3152258" lon="-3.0170118"><time>2026-09-13T11:43:01Z</time></trkpt>
<trkpt lat="43.3152724" lon="-3.0173376"><time>2026-09-13T11:43:03Z</time></trkpt>
<trkpt lat="43.315233" lon="-3.0174462"><time>2026-09-13T11:43:06Z</time></trkpt>
<trkpt lat="43.3151484" lon="-3.0175533"><time>2026-09-13T11:43:07Z</time></trkpt>
<trkpt lat="43.3151306" lon="-3.0175758"><time>2026-09-13T11:43:09Z</time></trkpt>
<trkpt lat="43.3151" lon="-3.0175895"><time>2026-09-13T11:43:11Z</time></trkpt>
<trkpt lat="43.3150967" lon="-3.0175901"><time>2026-09-13T11:43:13Z</time></trkpt>
<trkpt lat="43.3150959" lon="-3.0175893"><time>2026-09-13T11:43:16Z</time></trkpt>
<trkpt lat="43.3150956" lon="-3.0175903"><time>2026-09-13T11:43:18Z</time></trkpt>
<trkpt lat="43.3150943" lon="-3.0175918"><time>2026-09-13T11:43:20Z</time></trkpt>
<trkpt lat="43.3147812" lon="-3.0179348"><time>2026-09-13T11:43:21Z</time></trkpt>
<trkpt lat="43.3145129" lon="-3.0182271"><time>2026-09-13T11:43:23Z</time></trkpt>
<trkpt lat="43.3142655" lon="-3.0185249"><time>2026-09-13T11:43:25Z</time></trkpt>
<trkpt lat="43.3141732" lon="-3.0186381"><time>2026-09-13T11:43:27Z</time></trkpt>
<trkpt lat="43.314153" lon="-3.0186591"><time>2026-09-13T11:43:30Z</time></trkpt>
<trkpt lat="43.3137217" lon="-3.0193133"><time>2026-09-13T11:43:31Z</time></trkpt>
<trkpt lat="43.3136033" lon="-3.0193917"><time>2026-09-13T11:43:33Z</time></trkpt>
<trkpt lat="43.3134717" lon="-3.01948"><time>2026-09-13T11:43:35Z</time></trkpt>
<trkpt lat="43.31336" lon="-3.0195617"><time>2026-09-13T11:43:37Z</time></trkpt>
<trkpt lat="43.3132633" lon="-3.0196033"><time>2026-09-13T11:43:39Z</time></trkpt>
<trkpt lat="43.3131917" lon="-3.01966"><time>2026-09-13T11:43:41Z</time></trkpt>
<trkpt lat="43.3131183" lon="-3.0197233"><time>2026-09-13T11:43:43Z</time></trkpt>
<trkpt lat="43.3131933" lon="-3.0198517"><time>2026-09-13T11:43:45Z</time></trkpt>
<trkpt lat="43.31329" lon="-3.0199883"><time>2026-09-13T11:43:47Z</time></trkpt>
<trkpt lat="43.3133567" lon="-3.0201567"><time>2026-09-13T11:43:49Z</time></trkpt>
<trkpt lat="43.313365" lon="-3.020355"><time>2026-09-13T11:43:51Z</time></trkpt>
<trkpt lat="43.3133133" lon="-3.0205383"><time>2026-09-13T11:43:53Z</time></trkpt>
<trkpt lat="43.3132633" lon="-3.0207"><time>2026-09-13T11:43:55Z</time></trkpt>
<trkpt lat="43.3131517" lon="-3.0208517"><time>2026-09-13T11:43:57Z</time></trkpt>
<trkpt lat="43.31296" lon="-3.0209417"><time>2026-09-13T11:43:59Z</time></trkpt>
<trkpt lat="43.3127783" lon="-3.0210417"><time>2026-09-13T11:44:01Z</time></trkpt>
<trkpt lat="43.31266" lon="-3.0211333"><time>2026-09-13T11:44:03Z</time></trkpt>
<trkpt lat="43.3125667" lon="-3.02116"><time>2026-09-13T11:44:05Z</time></trkpt>
<trkpt lat="43.3124933" lon="-3.0211533"><time>2026-09-13T11:44:07Z</time></trkpt>
<trkpt lat="43.3124283" lon="-3.021045"><time>2026-09-13T11:44:09Z</time></trkpt>
<trkpt lat="43.3122817" lon="-3.0208117"><time>2026-09-13T11:44:11Z</time></trkpt>
<trkpt lat="43.312125" lon="-3.0204633"><time>2026-09-13T11:44:13Z</time></trkpt>
<trkpt lat="43.3118833" lon="-3.02008"><time>2026-09-13T11:44:15Z</time></trkpt>
<trkpt lat="43.31173" lon="-3.019735"><time>2026-09-13T11:44:17Z</time></trkpt>
<trkpt lat="43.3116083" lon="-3.0195367"><time>2026-09-13T11:44:19Z</time></trkpt>
<trkpt lat="43.3114367" lon="-3.01944"><time>2026-09-13T11:44:21Z</time></trkpt>
<trkpt lat="43.3113017" lon="-3.0194483"><time>2026-09-13T11:44:23Z</time></trkpt>
<trkpt lat="43.31121" lon="-3.0196"><time>2026-09-13T11:44:25Z</time></trkpt>
<trkpt lat="43.31116" lon="-3.0198783"><time>2026-09-13T11:44:27Z</time></trkpt>
<trkpt lat="43.31108" lon="-3.0201033"><time>2026-09-13T11:44:29Z</time></trkpt>
<trkpt lat="43.3109617" lon="-3.0203083"><time>2026-09-13T11:44:31Z</time></trkpt>
<trkpt lat="43.3108467" lon="-3.02051"><time>2026-09-13T11:44:33Z</time></trkpt>
<trkpt lat="43.3107267" lon="-3.0207183"><time>2026-09-13T11:44:35Z</time></trkpt>
<trkpt lat="43.310605" lon="-3.020905"><time>2026-09-13T11:44:37Z</time></trkpt>
<trkpt lat="43.31051" lon="-3.02115"><time>2026-09-13T11:44:39Z</time></trkpt>
<trkpt lat="43.310425" lon="-3.0213783"><time>2026-09-13T11:44:41Z</time></trkpt>
<trkpt lat="43.3103183" lon="-3.02153"><time>2026-09-13T11:44:43Z</time></trkpt>
<trkpt lat="43.3102083" lon="-3.0215917"><time>2026-09-13T11:44:45Z</time></trkpt>
<trkpt lat="43.3101117" lon="-3.0216"><time>2026-09-13T11:44:47Z</time></trkpt>
<trkpt lat="43.3100333" lon="-3.0215033"><time>2026-09-13T11:44:49Z</time></trkpt>
<trkpt lat="43.3099883" lon="-3.0212117"><time>2026-09-13T11:44:51Z</time></trkpt>
<trkpt lat="43.309965" lon="-3.0208633"><time>2026-09-13T11:44:53Z</time></trkpt>
<trkpt lat="43.3098867" lon="-3.0206267"><time>2026-09-13T11:44:55Z</time></trkpt>
<trkpt lat="43.3097883" lon="-3.0204067"><time>2026-09-13T11:44:57Z</time></trkpt>
<trkpt lat="43.3096717" lon="-3.0201683"><time>2026-09-13T11:44:59Z</time></trkpt>
<trkpt lat="43.3095417" lon="-3.0199633"><time>2026-09-13T11:45:01Z</time></trkpt>
<trkpt lat="43.3094083" lon="-3.0197417"><time>2026-09-13T11:45:03Z</time></trkpt>
<trkpt lat="43.3092867" lon="-3.0195033"><time>2026-09-13T11:45:05Z</time></trkpt>
<trkpt lat="43.3091933" lon="-3.0192833"><time>2026-09-13T11:45:07Z</time></trkpt>
<trkpt lat="43.3091067" lon="-3.0190867"><time>2026-09-13T11:45:09Z</time></trkpt>
<trkpt lat="43.309" lon="-3.01889"><time>2026-09-13T11:45:11Z</time></trkpt>
<trkpt lat="43.3088983" lon="-3.0186583"><time>2026-09-13T11:45:13Z</time></trkpt>
<trkpt lat="43.30879" lon="-3.0184483"><time>2026-09-13T11:45:15Z</time></trkpt>
<trkpt lat="43.3087217" lon="-3.0182083"><time>2026-09-13T11:45:17Z</time></trkpt>
<trkpt lat="43.3086783" lon="-3.0179517"><time>2026-09-13T11:45:19Z</time></trkpt>
<trkpt lat="43.3086817" lon="-3.01765"><time>2026-09-13T11:45:21Z</time></trkpt>
<trkpt lat="43.3086867" lon="-3.0173367"><time>2026-09-13T11:45:23Z</time></trkpt>
<trkpt lat="43.3086983" lon="-3.0170117"><time>2026-09-13T11:45:25Z</time></trkpt>
<trkpt lat="43.3087317" lon="-3.0167033"><time>2026-09-13T11:45:27Z</time></trkpt>
<trkpt lat="43.3088017" lon="-3.0164233"><time>2026-09-13T11:45:29Z</time></trkpt>
<trkpt lat="43.3088283" lon="-3.0161483"><time>2026-09-13T11:45:31Z</time></trkpt>
<trkpt lat="43.3088083" lon="-3.0158467"><time>2026-09-13T11:45:33Z</time></trkpt>
<trkpt lat="43.3087417" lon="-3.01557"><time>2026-09-13T11:45:35Z</time></trkpt>
<trkpt lat="43.30863" lon="-3.015335"><time>2026-09-13T11:45:37Z</time></trkpt>
<trkpt lat="43.3084617" lon="-3.0151617"><time>2026-09-13T11:45:39Z</time></trkpt>
<trkpt lat="43.308235" lon="-3.0150367"><time>2026-09-13T11:45:41Z</time></trkpt>
<trkpt lat="43.30799" lon="-3.0149533"><time>2026-09-13T11:45:43Z</time></trkpt>
<trkpt lat="43.3077233" lon="-3.0148567"><time>2026-09-13T11:45:45Z</time></trkpt>
<trkpt lat="43.3074617" lon="-3.0148633"><time>2026-09-13T11:45:47Z</time></trkpt>
<trkpt lat="43.3070967" lon="-3.0149583"><time>2026-09-13T11:45:50Z</time></trkpt>
<trkpt lat="43.306865" lon="-3.0150583"><time>2026-09-13T11:45:52Z</time></trkpt>
<trkpt lat="43.30668" lon="-3.0152017"><time>2026-09-13T11:45:54Z</time></trkpt>
<trkpt lat="43.30655" lon="-3.0153467"><time>2026-09-13T11:45:56Z</time></trkpt>
<trkpt lat="43.3064533" lon="-3.015485"><time>2026-09-13T11:45:58Z</time></trkpt>
<trkpt lat="43.3064533" lon="-3.0156683"><time>2026-09-13T11:46:00Z</time></trkpt>
<trkpt lat="43.3064467" lon="-3.0158933"><time>2026-09-13T11:46:02Z</time></trkpt>
<trkpt lat="43.3063783" lon="-3.0161067"><time>2026-09-13T11:46:04Z</time></trkpt>
<trkpt lat="43.3062617" lon="-3.0162933"><time>2026-09-13T11:46:06Z</time></trkpt>
<trkpt lat="43.3060967" lon="-3.0164467"><time>2026-09-13T11:46:08Z</time></trkpt>
<trkpt lat="43.3059267" lon="-3.0166817"><time>2026-09-13T11:46:10Z</time></trkpt>
<trkpt lat="43.3057933" lon="-3.0169917"><time>2026-09-13T11:46:12Z</time></trkpt>
<trkpt lat="43.3057033" lon="-3.01735"><time>2026-09-13T11:46:14Z</time></trkpt>
<trkpt lat="43.3056083" lon="-3.017765"><time>2026-09-13T11:46:16Z</time></trkpt>
<trkpt lat="43.3055933" lon="-3.0182783"><time>2026-09-13T11:46:18Z</time></trkpt>
<trkpt lat="43.3055433" lon="-3.0187667"><time>2026-09-13T11:46:20Z</time></trkpt>
<trkpt lat="43.305445" lon="-3.0191983"><time>2026-09-13T11:46:22Z</time></trkpt>
<trkpt lat="43.3052983" lon="-3.0196633"><time>2026-09-13T11:46:24Z</time></trkpt>
<trkpt lat="43.3051333" lon="-3.0201683"><time>2026-09-13T11:46:26Z</time></trkpt>
<trkpt lat="43.3049667" lon="-3.02062"><time>2026-09-13T11:46:28Z</time></trkpt>
<trkpt lat="43.30484" lon="-3.0211033"><time>2026-09-13T11:46:30Z</time></trkpt>
<trkpt lat="43.3047433" lon="-3.0216067"><time>2026-09-13T11:46:32Z</time></trkpt>
<trkpt lat="43.3046633" lon="-3.0221"><time>2026-09-13T11:46:34Z</time></trkpt>
<trkpt lat="43.3046283" lon="-3.0226433"><time>2026-09-13T11:46:36Z</time></trkpt>
<trkpt lat="43.3045933" lon="-3.0231117"><time>2026-09-13T11:46:38Z</time></trkpt>
<trkpt lat="43.3045317" lon="-3.0235967"><time>2026-09-13T11:46:40Z</time></trkpt>
<trkpt lat="43.30442" lon="-3.0240983"><time>2026-09-13T11:46:42Z</time></trkpt>
<trkpt lat="43.3042983" lon="-3.02455"><time>2026-09-13T11:46:44Z</time></trkpt>
<trkpt lat="43.3041767" lon="-3.02501"><time>2026-09-13T11:46:46Z</time></trkpt>
<trkpt lat="43.3040167" lon="-3.0255117"><time>2026-09-13T11:46:48Z</time></trkpt>
<trkpt lat="43.3038967" lon="-3.0258833"><time>2026-09-13T11:46:50Z</time></trkpt>
<trkpt lat="43.3038433" lon="-3.0261367"><time>2026-09-13T11:46:52Z</time></trkpt>
<trkpt lat="43.3036767" lon="-3.0261933"><time>2026-09-13T11:46:54Z</time></trkpt>
<trkpt lat="43.3027867" lon="-3.024835"><time>2026-09-13T11:46:56Z</time></trkpt>
<trkpt lat="43.3020717" lon="-3.02425"><time>2026-09-13T11:46:58Z</time></trkpt>
<trkpt lat="43.3016533" lon="-3.0240367"><time>2026-09-13T11:47:00Z</time></trkpt>
<trkpt lat="43.301325" lon="-3.023935"><time>2026-09-13T11:47:02Z</time></trkpt>
<trkpt lat="43.301005" lon="-3.0238417"><time>2026-09-13T11:47:04Z</time></trkpt>
<trkpt lat="43.300675" lon="-3.0237517"><time>2026-09-13T11:47:06Z</time></trkpt>
<trkpt lat="43.2997717" lon="-3.02267"><time>2026-09-13T11:47:10Z</time></trkpt>
<trkpt lat="43.2995117" lon="-3.0222133"><time>2026-09-13T11:47:12Z</time></trkpt>
<trkpt lat="43.29917" lon="-3.0218383"><time>2026-09-13T11:47:14Z</time></trkpt>
<trkpt lat="43.2988283" lon="-3.0216167"><time>2026-09-13T11:47:16Z</time></trkpt>
<trkpt lat="43.2984133" lon="-3.021325"><time>2026-09-13T11:47:18Z</time></trkpt>
<trkpt lat="43.29796" lon="-3.0210533"><time>2026-09-13T11:47:20Z</time></trkpt>
<trkpt lat="43.2975633" lon="-3.020835"><time>2026-09-13T11:47:22Z</time></trkpt>
<trkpt lat="43.2972217" lon="-3.020625"><time>2026-09-13T11:47:24Z</time></trkpt>
<trkpt lat="43.29687" lon="-3.0204167"><time>2026-09-13T11:47:26Z</time></trkpt>
<trkpt lat="43.2965" lon="-3.0202033"><time>2026-09-13T11:47:28Z</time></trkpt>
<trkpt lat="43.2961183" lon="-3.0199733"><time>2026-09-13T11:47:30Z</time></trkpt>
<trkpt lat="43.2957783" lon="-3.0197017"><time>2026-09-13T11:47:32Z</time></trkpt>
<trkpt lat="43.29543" lon="-3.0193483"><time>2026-09-13T11:47:34Z</time></trkpt>
<trkpt lat="43.2951083" lon="-3.0189633"><time>2026-09-13T11:47:36Z</time></trkpt>
<trkpt lat="43.2947983" lon="-3.0186467"><time>2026-09-13T11:47:38Z</time></trkpt>
<trkpt lat="43.2944883" lon="-3.0182733"><time>2026-09-13T11:47:40Z</time></trkpt>
<trkpt lat="43.29421" lon="-3.017885"><time>2026-09-13T11:47:42Z</time></trkpt>
<trkpt lat="43.29393" lon="-3.0174983"><time>2026-09-13T11:47:44Z</time></trkpt>
<trkpt lat="43.29365" lon="-3.0170683"><time>2026-09-13T11:47:46Z</time></trkpt>
<trkpt lat="43.29341" lon="-3.0166167"><time>2026-09-13T11:47:48Z</time></trkpt>
<trkpt lat="43.2931617" lon="-3.016105"><time>2026-09-13T11:47:50Z</time></trkpt>
<trkpt lat="43.2929317" lon="-3.0155883"><time>2026-09-13T11:47:52Z</time></trkpt>
<trkpt lat="43.29272" lon="-3.015055"><time>2026-09-13T11:47:54Z</time></trkpt>
<trkpt lat="43.292515" lon="-3.0145133"><time>2026-09-13T11:47:56Z</time></trkpt>
<trkpt lat="43.2923167" lon="-3.0139167"><time>2026-09-13T11:47:58Z</time></trkpt>
<trkpt lat="43.2921483" lon="-3.0133433"><time>2026-09-13T11:48:00Z</time></trkpt>
<trkpt lat="43.2919483" lon="-3.0127617"><time>2026-09-13T11:48:02Z</time></trkpt>
<trkpt lat="43.2917633" lon="-3.0121817"><time>2026-09-13T11:48:04Z</time></trkpt>
<trkpt lat="43.2915617" lon="-3.0115983"><time>2026-09-13T11:48:06Z</time></trkpt>
<trkpt lat="43.29132" lon="-3.0110417"><time>2026-09-13T11:48:08Z</time></trkpt>
<trkpt lat="43.2910717" lon="-3.0105017"><time>2026-09-13T11:48:10Z</time></trkpt>
<trkpt lat="43.2908383" lon="-3.0099983"><time>2026-09-13T11:48:12Z</time></trkpt>
<trkpt lat="43.290625" lon="-3.00949"><time>2026-09-13T11:48:14Z</time></trkpt>
<trkpt lat="43.2904117" lon="-3.0090117"><time>2026-09-13T11:48:16Z</time></trkpt>
<trkpt lat="43.2902117" lon="-3.0084983"><time>2026-09-13T11:48:18Z</time></trkpt>
<trkpt lat="43.28999" lon="-3.0079883"><time>2026-09-13T11:48:20Z</time></trkpt>
<trkpt lat="43.2897667" lon="-3.0074967"><time>2026-09-13T11:48:22Z</time></trkpt>
<trkpt lat="43.2895517" lon="-3.007"><time>2026-09-13T11:48:24Z</time></trkpt>
<trkpt lat="43.2893583" lon="-3.006545"><time>2026-09-13T11:48:26Z</time></trkpt>
<trkpt lat="43.289155" lon="-3.006095"><time>2026-09-13T11:48:28Z</time></trkpt>
<trkpt lat="43.28894" lon="-3.0056117"><time>2026-09-13T11:48:30Z</time></trkpt>
<trkpt lat="43.288735" lon="-3.0051417"><time>2026-09-13T11:48:32Z</time></trkpt>
<trkpt lat="43.28857" lon="-3.0047183"><time>2026-09-13T11:48:34Z</time></trkpt>
<trkpt lat="43.28836" lon="-3.0042483"><time>2026-09-13T11:48:36Z</time></trkpt>
<trkpt lat="43.288105" lon="-3.0037883"><time>2026-09-13T11:48:38Z</time></trkpt>
<trkpt lat="43.2878733" lon="-3.0033267"><time>2026-09-13T11:48:40Z</time></trkpt>
<trkpt lat="43.2876533" lon="-3.0028533"><time>2026-09-13T11:48:42Z</time></trkpt>
<trkpt lat="43.28745" lon="-3.002325"><time>2026-09-13T11:48:44Z</time></trkpt>
<trkpt lat="43.2872133" lon="-3.0018567"><time>2026-09-13T11:48:46Z</time></trkpt>
<trkpt lat="43.2870017" lon="-3.00135"><time>2026-09-13T11:48:48Z</time></trkpt>
<trkpt lat="43.2867817" lon="-3.0008583"><time>2026-09-13T11:48:50Z</time></trkpt>
<trkpt lat="43.2865833" lon="-3.00041"><time>2026-09-13T11:48:52Z</time></trkpt>
<trkpt lat="43.2863867" lon="-2.99999"><time>2026-09-13T11:48:54Z</time></trkpt>
<trkpt lat="43.2861983" lon="-2.9995767"><time>2026-09-13T11:48:56Z</time></trkpt>
<trkpt lat="43.2860083" lon="-2.99914"><time>2026-09-13T11:48:58Z</time></trkpt>
<trkpt lat="43.2858083" lon="-2.9986617"><time>2026-09-13T11:49:00Z</time></trkpt>
<trkpt lat="43.2856117" lon="-2.9982233"><time>2026-09-13T11:49:02Z</time></trkpt>
<trkpt lat="43.2854267" lon="-2.9977667"><time>2026-09-13T11:49:04Z</time></trkpt>
<trkpt lat="43.2852433" lon="-2.9973217"><time>2026-09-13T11:49:06Z</time></trkpt>
<trkpt lat="43.2850733" lon="-2.9968917"><time>2026-09-13T11:49:08Z</time></trkpt>
<trkpt lat="43.2849" lon="-2.99642"><time>2026-09-13T11:49:10Z</time></trkpt>
<trkpt lat="43.2847483" lon="-2.9959617"><time>2026-09-13T11:49:12Z</time></trkpt>
<trkpt lat="43.28463" lon="-2.9955033"><time>2026-09-13T11:49:14Z</time></trkpt>
<trkpt lat="43.2844983" lon="-2.9950167"><time>2026-09-13T11:49:16Z</time></trkpt>
<trkpt lat="43.2844217" lon="-2.994605"><time>2026-09-13T11:49:18Z</time></trkpt>
<trkpt lat="43.2843817" lon="-2.9941083"><time>2026-09-13T11:49:20Z</time></trkpt>
<trkpt lat="43.2843433" lon="-2.9936067"><time>2026-09-13T11:49:22Z</time></trkpt>
<trkpt lat="43.28437" lon="-2.993125"><time>2026-09-13T11:49:24Z</time></trkpt>
<trkpt lat="43.2843917" lon="-2.9926883"><time>2026-09-13T11:49:26Z</time></trkpt>
<trkpt lat="43.2844117" lon="-2.9921883"><time>2026-09-13T11:49:28Z</time></trkpt>
<trkpt lat="43.28452" lon="-2.9914567"><time>2026-09-13T11:49:31Z</time></trkpt>
<trkpt lat="43.284675" lon="-2.9909633"><time>2026-09-13T11:49:33Z</time></trkpt>
<trkpt lat="43.2848183" lon="-2.9904517"><time>2026-09-13T11:49:35Z</time></trkpt>
<trkpt lat="43.28489" lon="-2.9899533"><time>2026-09-13T11:49:37Z</time></trkpt>
<trkpt lat="43.2849333" lon="-2.9894533"><time>2026-09-13T11:49:39Z</time></trkpt>
<trkpt lat="43.2849783" lon="-2.9889567"><time>2026-09-13T11:49:41Z</time></trkpt>
<trkpt lat="43.2850567" lon="-2.98848"><time>2026-09-13T11:49:43Z</time></trkpt>
<trkpt lat="43.28515" lon="-2.9879883"><time>2026-09-13T11:49:45Z</time></trkpt>
<trkpt lat="43.285245" lon="-2.9875417"><time>2026-09-13T11:49:47Z</time></trkpt>
<trkpt lat="43.285405" lon="-2.987125"><time>2026-09-13T11:49:49Z</time></trkpt>
<trkpt lat="43.2855883" lon="-2.986725"><time>2026-09-13T11:49:51Z</time></trkpt>
<trkpt lat="43.2857867" lon="-2.98636"><time>2026-09-13T11:49:53Z</time></trkpt>
<trkpt lat="43.28604" lon="-2.9860383"><time>2026-09-13T11:49:55Z</time></trkpt>
<trkpt lat="43.28632" lon="-2.9857633"><time>2026-09-13T11:49:57Z</time></trkpt>
<trkpt lat="43.2866417" lon="-2.9855683"><time>2026-09-13T11:49:59Z</time></trkpt>
<trkpt lat="43.2869617" lon="-2.98546"><time>2026-09-13T11:50:01Z</time></trkpt>
<trkpt lat="43.28732" lon="-2.9855483"><time>2026-09-13T11:50:03Z</time></trkpt>
<trkpt lat="43.2876533" lon="-2.9855883"><time>2026-09-13T11:50:05Z</time></trkpt>
<trkpt lat="43.2879733" lon="-2.985605"><time>2026-09-13T11:50:07Z</time></trkpt>
<trkpt lat="43.2883417" lon="-2.98559"><time>2026-09-13T11:50:09Z</time></trkpt>
<trkpt lat="43.2886983" lon="-2.9855617"><time>2026-09-13T11:50:11Z</time></trkpt>
<trkpt lat="43.2890767" lon="-2.9854983"><time>2026-09-13T11:50:13Z</time></trkpt>
<trkpt lat="43.2894583" lon="-2.9854583"><time>2026-09-13T11:50:15Z</time></trkpt>
<trkpt lat="43.2898517" lon="-2.9854033"><time>2026-09-13T11:50:17Z</time></trkpt>
<trkpt lat="43.29028" lon="-2.9853433"><time>2026-09-13T11:50:19Z</time></trkpt>
<trkpt lat="43.29074" lon="-2.9852667"><time>2026-09-13T11:50:21Z</time></trkpt>
<trkpt lat="43.2911817" lon="-2.985115"><time>2026-09-13T11:50:23Z</time></trkpt>
<trkpt lat="43.2916133" lon="-2.9848817"><time>2026-09-13T11:50:25Z</time></trkpt>
<trkpt lat="43.2920117" lon="-2.98457"><time>2026-09-13T11:50:27Z</time></trkpt>
<trkpt lat="43.2923967" lon="-2.9841817"><time>2026-09-13T11:50:29Z</time></trkpt>
<trkpt lat="43.292725" lon="-2.9837117"><time>2026-09-13T11:50:31Z</time></trkpt>
<trkpt lat="43.2930433" lon="-2.983215"><time>2026-09-13T11:50:33Z</time></trkpt>
<trkpt lat="43.2933267" lon="-2.98271"><time>2026-09-13T11:50:35Z</time></trkpt>
<trkpt lat="43.293565" lon="-2.9821967"><time>2026-09-13T11:50:37Z</time></trkpt>
<trkpt lat="43.2937617" lon="-2.9816433"><time>2026-09-13T11:50:39Z</time></trkpt>
<trkpt lat="43.2939717" lon="-2.9810167"><time>2026-09-13T11:50:41Z</time></trkpt>
<trkpt lat="43.2941833" lon="-2.9803383"><time>2026-09-13T11:50:43Z</time></trkpt>
<trkpt lat="43.29437" lon="-2.9796117"><time>2026-09-13T11:50:45Z</time></trkpt>
<trkpt lat="43.2945383" lon="-2.9788833"><time>2026-09-13T11:50:47Z</time></trkpt>
<trkpt lat="43.2946883" lon="-2.978135"><time>2026-09-13T11:50:49Z</time></trkpt>
<trkpt lat="43.2948033" lon="-2.9774817"><time>2026-09-13T11:50:51Z</time></trkpt>
<trkpt lat="43.294905" lon="-2.9768617"><time>2026-09-13T11:50:53Z</time></trkpt>
<trkpt lat="43.2949833" lon="-2.9762783"><time>2026-09-13T11:50:55Z</time></trkpt>
<trkpt lat="43.295035" lon="-2.97568"><time>2026-09-13T11:50:57Z</time></trkpt>
<trkpt lat="43.2951083" lon="-2.97508"><time>2026-09-13T11:50:59Z</time></trkpt>
<trkpt lat="43.295185" lon="-2.974495"><time>2026-09-13T11:51:01Z</time></trkpt>
<trkpt lat="43.2952983" lon="-2.9738533"><time>2026-09-13T11:51:03Z</time></trkpt>
<trkpt lat="43.29539" lon="-2.9732883"><time>2026-09-13T11:51:05Z</time></trkpt>
<trkpt lat="43.2955017" lon="-2.9727383"><time>2026-09-13T11:51:07Z</time></trkpt>
<trkpt lat="43.2956033" lon="-2.9721733"><time>2026-09-13T11:51:09Z</time></trkpt>
<trkpt lat="43.2956983" lon="-2.9716283"><time>2026-09-13T11:51:11Z</time></trkpt>
<trkpt lat="43.2958033" lon="-2.971085"><time>2026-09-13T11:51:13Z</time></trkpt>
<trkpt lat="43.29593" lon="-2.97056"><time>2026-09-13T11:51:15Z</time></trkpt>
<trkpt lat="43.2960067" lon="-2.9700917"><time>2026-09-13T11:51:17Z</time></trkpt>
<trkpt lat="43.2960633" lon="-2.9696467"><time>2026-09-13T11:51:19Z</time></trkpt>
<trkpt lat="43.2962083" lon="-2.9691783"><time>2026-09-13T11:51:21Z</time></trkpt>
<trkpt lat="43.2963683" lon="-2.9687417"><time>2026-09-13T11:51:23Z</time></trkpt>
<trkpt lat="43.296555" lon="-2.96831"><time>2026-09-13T11:51:25Z</time></trkpt>
<trkpt lat="43.296765" lon="-2.9679133"><time>2026-09-13T11:51:27Z</time></trkpt>
<trkpt lat="43.296995" lon="-2.9675217"><time>2026-09-13T11:51:29Z</time></trkpt>
<trkpt lat="43.2972517" lon="-2.9671417"><time>2026-09-13T11:51:31Z</time></trkpt>
<trkpt lat="43.2974967" lon="-2.9668017"><time>2026-09-13T11:51:33Z</time></trkpt>
<trkpt lat="43.297765" lon="-2.9664567"><time>2026-09-13T11:51:35Z</time></trkpt>
<trkpt lat="43.2980517" lon="-2.966125"><time>2026-09-13T11:51:37Z</time></trkpt>
<trkpt lat="43.2984517" lon="-2.9658667"><time>2026-09-13T11:51:39Z</time></trkpt>
<trkpt lat="43.2988417" lon="-2.9656567"><time>2026-09-13T11:51:41Z</time></trkpt>
<trkpt lat="43.2992317" lon="-2.9654283"><time>2026-09-13T11:51:43Z</time></trkpt>
<trkpt lat="43.2996433" lon="-2.9651733"><time>2026-09-13T11:51:45Z</time></trkpt>
<trkpt lat="43.3000583" lon="-2.9648633"><time>2026-09-13T11:51:47Z</time></trkpt>
<trkpt lat="43.3005" lon="-2.964545"><time>2026-09-13T11:51:49Z</time></trkpt>
<trkpt lat="43.300865" lon="-2.964145"><time>2026-09-13T11:51:51Z</time></trkpt>
<trkpt lat="43.30117" lon="-2.9636967"><time>2026-09-13T11:51:53Z</time></trkpt>
<trkpt lat="43.301485" lon="-2.9632"><time>2026-09-13T11:51:55Z</time></trkpt>
<trkpt lat="43.3015867" lon="-2.962685"><time>2026-09-13T11:51:57Z</time></trkpt>
<trkpt lat="43.3016867" lon="-2.96218"><time>2026-09-13T11:51:59Z</time></trkpt>
<trkpt lat="43.3017767" lon="-2.961665"><time>2026-09-13T11:52:01Z</time></trkpt>
<trkpt lat="43.3018417" lon="-2.9611717"><time>2026-09-13T11:52:03Z</time></trkpt>
<trkpt lat="43.3017883" lon="-2.9607367"><time>2026-09-13T11:52:05Z</time></trkpt>
<trkpt lat="43.30155" lon="-2.96036"><time>2026-09-13T11:52:07Z</time></trkpt>
<trkpt lat="43.30142" lon="-2.959945"><time>2026-09-13T11:52:09Z</time></trkpt>
<trkpt lat="43.3012683" lon="-2.9594867"><time>2026-09-13T11:52:11Z</time></trkpt>
<trkpt lat="43.3010817" lon="-2.9590083"><time>2026-09-13T11:52:13Z</time></trkpt>
<trkpt lat="43.3008017" lon="-2.95854"><time>2026-09-13T11:52:15Z</time></trkpt>
<trkpt lat="43.3005083" lon="-2.9581033"><time>2026-09-13T11:52:17Z</time></trkpt>
<trkpt lat="43.300225" lon="-2.9576233"><time>2026-09-13T11:52:19Z</time></trkpt>
<trkpt lat="43.2999733" lon="-2.95714"><time>2026-09-13T11:52:21Z</time></trkpt>
<trkpt lat="43.29977" lon="-2.9566067"><time>2026-09-13T11:52:23Z</time></trkpt>
<trkpt lat="43.2995583" lon="-2.956065"><time>2026-09-13T11:52:25Z</time></trkpt>
<trkpt lat="43.2993633" lon="-2.9554483"><time>2026-09-13T11:52:27Z</time></trkpt>
<trkpt lat="43.2992067" lon="-2.9547717"><time>2026-09-13T11:52:29Z</time></trkpt>
<trkpt lat="43.298985" lon="-2.9540767"><time>2026-09-13T11:52:31Z</time></trkpt>
<trkpt lat="43.2987633" lon="-2.9533633"><time>2026-09-13T11:52:33Z</time></trkpt>
<trkpt lat="43.2985433" lon="-2.95263"><time>2026-09-13T11:52:35Z</time></trkpt>
<trkpt lat="43.2983033" lon="-2.9518717"><time>2026-09-13T11:52:37Z</time></trkpt>
<trkpt lat="43.298085" lon="-2.9511233"><time>2026-09-13T11:52:39Z</time></trkpt>
<trkpt lat="43.2978633" lon="-2.9503717"><time>2026-09-13T11:52:41Z</time></trkpt>
<trkpt lat="43.297625" lon="-2.9496283"><time>2026-09-13T11:52:43Z</time></trkpt>
<trkpt lat="43.297305" lon="-2.9489367"><time>2026-09-13T11:52:45Z</time></trkpt>
<trkpt lat="43.2968383" lon="-2.9483017"><time>2026-09-13T11:52:47Z</time></trkpt>
<trkpt lat="43.2964267" lon="-2.9476967"><time>2026-09-13T11:52:49Z</time></trkpt>
<trkpt lat="43.2960233" lon="-2.9471233"><time>2026-09-13T11:52:51Z</time></trkpt>
<trkpt lat="43.29562" lon="-2.946545"><time>2026-09-13T11:52:53Z</time></trkpt>
<trkpt lat="43.2951783" lon="-2.9459517"><time>2026-09-13T11:52:55Z</time></trkpt>
<trkpt lat="43.2947217" lon="-2.9453983"><time>2026-09-13T11:52:57Z</time></trkpt>
<trkpt lat="43.294215" lon="-2.9448733"><time>2026-09-13T11:52:59Z</time></trkpt>
<trkpt lat="43.2936783" lon="-2.9444433"><time>2026-09-13T11:53:01Z</time></trkpt>
<trkpt lat="43.2931117" lon="-2.944085"><time>2026-09-13T11:53:03Z</time></trkpt>
<trkpt lat="43.29255" lon="-2.94373"><time>2026-09-13T11:53:05Z</time></trkpt>
<trkpt lat="43.2919667" lon="-2.94345"><time>2026-09-13T11:53:07Z</time></trkpt>
<trkpt lat="43.29139" lon="-2.9432117"><time>2026-09-13T11:53:09Z</time></trkpt>
<trkpt lat="43.2908533" lon="-2.9429567"><time>2026-09-13T11:53:11Z</time></trkpt>
<trkpt lat="43.290315" lon="-2.9426333"><time>2026-09-13T11:53:13Z</time></trkpt>
<trkpt lat="43.2897817" lon="-2.942215"><time>2026-09-13T11:53:15Z</time></trkpt>
<trkpt lat="43.2892867" lon="-2.9417983"><time>2026-09-13T11:53:17Z</time></trkpt>
<trkpt lat="43.288805" lon="-2.94133"><time>2026-09-13T11:53:19Z</time></trkpt>
<trkpt lat="43.2883583" lon="-2.9406983"><time>2026-09-13T11:53:21Z</time></trkpt>
<trkpt lat="43.2879433" lon="-2.94002"><time>2026-09-13T11:53:23Z</time></trkpt>
<trkpt lat="43.2876083" lon="-2.9393167"><time>2026-09-13T11:53:25Z</time></trkpt>
<trkpt lat="43.2872967" lon="-2.9385683"><time>2026-09-13T11:53:27Z</time></trkpt>
<trkpt lat="43.287" lon="-2.93778"><time>2026-09-13T11:53:29Z</time></trkpt>
<trkpt lat="43.2867067" lon="-2.9369883"><time>2026-09-13T11:53:31Z</time></trkpt>
<trkpt lat="43.28647" lon="-2.9361833"><time>2026-09-13T11:53:33Z</time></trkpt>
<trkpt lat="43.2862967" lon="-2.9353"><time>2026-09-13T11:53:35Z</time></trkpt>
<trkpt lat="43.2861417" lon="-2.9343933"><time>2026-09-13T11:53:37Z</time></trkpt>
<trkpt lat="43.28594" lon="-2.9335667"><time>2026-09-13T11:53:39Z</time></trkpt>
<trkpt lat="43.2857617" lon="-2.9327567"><time>2026-09-13T11:53:41Z</time></trkpt>
<trkpt lat="43.28563" lon="-2.9319267"><time>2026-09-13T11:53:43Z</time></trkpt>
<trkpt lat="43.2855283" lon="-2.931075"><time>2026-09-13T11:53:45Z</time></trkpt>
<trkpt lat="43.2853983" lon="-2.9302967"><time>2026-09-13T11:53:47Z</time></trkpt>
<trkpt lat="43.2853083" lon="-2.92956"><time>2026-09-13T11:53:49Z</time></trkpt>
<trkpt lat="43.2852283" lon="-2.92879"><time>2026-09-13T11:53:51Z</time></trkpt>
<trkpt lat="43.285225" lon="-2.9279667"><time>2026-09-13T11:53:53Z</time></trkpt>
<trkpt lat="43.285245" lon="-2.92717"><time>2026-09-13T11:53:55Z</time></trkpt>
<trkpt lat="43.2853717" lon="-2.926415"><time>2026-09-13T11:53:57Z</time></trkpt>
<trkpt lat="43.28555" lon="-2.925685"><time>2026-09-13T11:53:59Z</time></trkpt>
<trkpt lat="43.285725" lon="-2.9249217"><time>2026-09-13T11:54:01Z</time></trkpt>
<trkpt lat="43.285935" lon="-2.9242117"><time>2026-09-13T11:54:03Z</time></trkpt>
<trkpt lat="43.2864033" lon="-2.9235183"><time>2026-09-13T11:54:05Z</time></trkpt>
<trkpt lat="43.2869" lon="-2.9229133"><time>2026-09-13T11:54:07Z</time></trkpt>
<trkpt lat="43.2873283" lon="-2.9223483"><time>2026-09-13T11:54:09Z</time></trkpt>
<trkpt lat="43.2879567" lon="-2.9217567"><time>2026-09-13T11:54:11Z</time></trkpt>
<trkpt lat="43.2884517" lon="-2.9212783"><time>2026-09-13T11:54:13Z</time></trkpt>
<trkpt lat="43.2888433" lon="-2.9207933"><time>2026-09-13T11:54:15Z</time></trkpt>
<trkpt lat="43.2892233" lon="-2.9202"><time>2026-09-13T11:54:17Z</time></trkpt>
<trkpt lat="43.2895583" lon="-2.919565"><time>2026-09-13T11:54:19Z</time></trkpt>
<trkpt lat="43.2898333" lon="-2.9188817"><time>2026-09-13T11:54:21Z</time></trkpt>
<trkpt lat="43.2900467" lon="-2.9181667"><time>2026-09-13T11:54:23Z</time></trkpt>
<trkpt lat="43.2901617" lon="-2.9174083"><time>2026-09-13T11:54:25Z</time></trkpt>
<trkpt lat="43.2902083" lon="-2.91668"><time>2026-09-13T11:54:27Z</time></trkpt>
<trkpt lat="43.2901817" lon="-2.9159067"><time>2026-09-13T11:54:29Z</time></trkpt>
<trkpt lat="43.2900333" lon="-2.9150983"><time>2026-09-13T11:54:31Z</time></trkpt>
<trkpt lat="43.2898433" lon="-2.91433"><time>2026-09-13T11:54:33Z</time></trkpt>
<trkpt lat="43.289675" lon="-2.91355"><time>2026-09-13T11:54:35Z</time></trkpt>
<trkpt lat="43.2895" lon="-2.9127433"><time>2026-09-13T11:54:37Z</time></trkpt>
<trkpt lat="43.2893967" lon="-2.9119567"><time>2026-09-13T11:54:39Z</time></trkpt>
<trkpt lat="43.2893517" lon="-2.911185"><time>2026-09-13T11:54:41Z</time></trkpt>
<trkpt lat="43.2893583" lon="-2.910425"><time>2026-09-13T11:54:43Z</time></trkpt>
<trkpt lat="43.2893683" lon="-2.9096383"><time>2026-09-13T11:54:45Z</time></trkpt>
<trkpt lat="43.289385" lon="-2.9088933"><time>2026-09-13T11:54:47Z</time></trkpt>
<trkpt lat="43.2894267" lon="-2.9081533"><time>2026-09-13T11:54:49Z</time></trkpt>
<trkpt lat="43.2894033" lon="-2.9074067"><time>2026-09-13T11:54:51Z</time></trkpt>
<trkpt lat="43.28935" lon="-2.9066867"><time>2026-09-13T11:54:53Z</time></trkpt>
<trkpt lat="43.28927" lon="-2.905955"><time>2026-09-13T11:54:55Z</time></trkpt>
<trkpt lat="43.2891683" lon="-2.9052233"><time>2026-09-13T11:54:57Z</time></trkpt>
<trkpt lat="43.2890767" lon="-2.904505"><time>2026-09-13T11:54:59Z</time></trkpt>
<trkpt lat="43.2889717" lon="-2.9038133"><time>2026-09-13T11:55:01Z</time></trkpt>
<trkpt lat="43.28883" lon="-2.9031233"><time>2026-09-13T11:55:03Z</time></trkpt>
<trkpt lat="43.288655" lon="-2.90247"><time>2026-09-13T11:55:05Z</time></trkpt>
<trkpt lat="43.2885233" lon="-2.9017783"><time>2026-09-13T11:55:07Z</time></trkpt>
<trkpt lat="43.2884867" lon="-2.9010933"><time>2026-09-13T11:55:09Z</time></trkpt>
<trkpt lat="43.2885333" lon="-2.90042"><time>2026-09-13T11:55:11Z</time></trkpt>
<trkpt lat="43.2885983" lon="-2.8997833"><time>2026-09-13T11:55:13Z</time></trkpt>
<trkpt lat="43.2886483" lon="-2.8991533"><time>2026-09-13T11:55:15Z</time></trkpt>
<trkpt lat="43.2886867" lon="-2.898525"><time>2026-09-13T11:55:17Z</time></trkpt>
<trkpt lat="43.2887333" lon="-2.8978933"><time>2026-09-13T11:55:19Z</time></trkpt>
<trkpt lat="43.2887433" lon="-2.8972367"><time>2026-09-13T11:55:21Z</time></trkpt>
<trkpt lat="43.28868" lon="-2.896565"><time>2026-09-13T11:55:23Z</time></trkpt>
<trkpt lat="43.2885683" lon="-2.8958783"><time>2026-09-13T11:55:25Z</time></trkpt>
<trkpt lat="43.28839" lon="-2.8951783"><time>2026-09-13T11:55:27Z</time></trkpt>
<trkpt lat="43.2881483" lon="-2.8945717"><time>2026-09-13T11:55:29Z</time></trkpt>
<trkpt lat="43.2878383" lon="-2.8940067"><time>2026-09-13T11:55:31Z</time></trkpt>
<trkpt lat="43.2874883" lon="-2.89352"><time>2026-09-13T11:55:33Z</time></trkpt>
<trkpt lat="43.2870467" lon="-2.8931217"><time>2026-09-13T11:55:35Z</time></trkpt>
<trkpt lat="43.2866783" lon="-2.8926867"><time>2026-09-13T11:55:37Z</time></trkpt>
<trkpt lat="43.2863517" lon="-2.8921967"><time>2026-09-13T11:55:39Z</time></trkpt>
<trkpt lat="43.285935" lon="-2.8917583"><time>2026-09-13T11:55:41Z</time></trkpt>
<trkpt lat="43.2855967" lon="-2.8912567"><time>2026-09-13T11:55:43Z</time></trkpt>
<trkpt lat="43.2853133" lon="-2.8906367"><time>2026-09-13T11:55:45Z</time></trkpt>
<trkpt lat="43.28506" lon="-2.8899833"><time>2026-09-13T11:55:47Z</time></trkpt>
<trkpt lat="43.284815" lon="-2.8893467"><time>2026-09-13T11:55:49Z</time></trkpt>
<trkpt lat="43.2845817" lon="-2.888735"><time>2026-09-13T11:55:51Z</time></trkpt>
<trkpt lat="43.2842867" lon="-2.888125"><time>2026-09-13T11:55:53Z</time></trkpt>
<trkpt lat="43.283955" lon="-2.887545"><time>2026-09-13T11:55:55Z</time></trkpt>
<trkpt lat="43.2836083" lon="-2.8869967"><time>2026-09-13T11:55:57Z</time></trkpt>
<trkpt lat="43.2832533" lon="-2.8864617"><time>2026-09-13T11:55:59Z</time></trkpt>
<trkpt lat="43.2829333" lon="-2.885875"><time>2026-09-13T11:56:01Z</time></trkpt>
<trkpt lat="43.2826333" lon="-2.885305"><time>2026-09-13T11:56:03Z</time></trkpt>
<trkpt lat="43.2823767" lon="-2.8847033"><time>2026-09-13T11:56:05Z</time></trkpt>
<trkpt lat="43.2821317" lon="-2.8840717"><time>2026-09-13T11:56:07Z</time></trkpt>
<trkpt lat="43.2819033" lon="-2.88343"><time>2026-09-13T11:56:09Z</time></trkpt>
<trkpt lat="43.2816867" lon="-2.8827133"><time>2026-09-13T11:56:11Z</time></trkpt>
<trkpt lat="43.2815033" lon="-2.88198"><time>2026-09-13T11:56:13Z</time></trkpt>
<trkpt lat="43.2813317" lon="-2.8812983"><time>2026-09-13T11:56:15Z</time></trkpt>
<trkpt lat="43.28123" lon="-2.880605"><time>2026-09-13T11:56:17Z</time></trkpt>
<trkpt lat="43.281105" lon="-2.8798633"><time>2026-09-13T11:56:19Z</time></trkpt>
<trkpt lat="43.2809167" lon="-2.8791433"><time>2026-09-13T11:56:21Z</time></trkpt>
<trkpt lat="43.280675" lon="-2.8784317"><time>2026-09-13T11:56:23Z</time></trkpt>
<trkpt lat="43.280675" lon="-2.8784317"><time>2026-09-13T11:56:29Z</time></trkpt>
<trkpt lat="43.280675" lon="-2.8784317"><time>2026-09-13T11:56:35Z</time></trkpt>
<trkpt lat="43.2778183" lon="-2.874055"><time>2026-09-13T11:56:38Z</time></trkpt>
<trkpt lat="43.2774583" lon="-2.8733983"><time>2026-09-13T11:56:40Z</time></trkpt>
<trkpt lat="43.277195" lon="-2.8727833"><time>2026-09-13T11:56:42Z</time></trkpt>
<trkpt lat="43.277035" lon="-2.87208"><time>2026-09-13T11:56:44Z</time></trkpt>
<trkpt lat="43.276885" lon="-2.87133"><time>2026-09-13T11:56:46Z</time></trkpt>
<trkpt lat="43.276725" lon="-2.8705667"><time>2026-09-13T11:56:48Z</time></trkpt>
<trkpt lat="43.2765267" lon="-2.869795"><time>2026-09-13T11:56:50Z</time></trkpt>
<trkpt lat="43.2763217" lon="-2.8690333"><time>2026-09-13T11:56:52Z</time></trkpt>
<trkpt lat="43.2760917" lon="-2.8682567"><time>2026-09-13T11:56:54Z</time></trkpt>
<trkpt lat="43.2758167" lon="-2.86745"><time>2026-09-13T11:56:56Z</time></trkpt>
<trkpt lat="43.2755533" lon="-2.8666217"><time>2026-09-13T11:56:58Z</time></trkpt>
<trkpt lat="43.2755533" lon="-2.8666217"><time>2026-09-13T11:57:01Z</time></trkpt>
<trkpt lat="43.2755533" lon="-2.8666217"><time>2026-09-13T11:57:07Z</time></trkpt>
<trkpt lat="43.2755533" lon="-2.8666217"><time>2026-09-13T11:57:12Z</time></trkpt>
<trkpt lat="43.2729117" lon="-2.85972"><time>2026-09-13T11:57:17Z</time></trkpt>
<trkpt lat="43.2728933" lon="-2.8590383"><time>2026-09-13T11:57:19Z</time></trkpt>
<trkpt lat="43.27289" lon="-2.8582417"><time>2026-09-13T11:57:21Z</time></trkpt>
<trkpt lat="43.2728417" lon="-2.8574633"><time>2026-09-13T11:57:23Z</time></trkpt>
<trkpt lat="43.2728017" lon="-2.85668"><time>2026-09-13T11:57:25Z</time></trkpt>
<trkpt lat="43.2727767" lon="-2.855905"><time>2026-09-13T11:57:27Z</time></trkpt>
<trkpt lat="43.2726983" lon="-2.8551217"><time>2026-09-13T11:57:29Z</time></trkpt>
<trkpt lat="43.2725767" lon="-2.8543333"><time>2026-09-13T11:57:31Z</time></trkpt>
<trkpt lat="43.2723983" lon="-2.8535283"><time>2026-09-13T11:57:33Z</time></trkpt>
<trkpt lat="43.2721667" lon="-2.8527017"><time>2026-09-13T11:57:35Z</time></trkpt>
<trkpt lat="43.2718267" lon="-2.8518767"><time>2026-09-13T11:57:37Z</time></trkpt>
<trkpt lat="43.27146" lon="-2.8510833"><time>2026-09-13T11:57:39Z</time></trkpt>
<trkpt lat="43.2710283" lon="-2.85039"><time>2026-09-13T11:57:41Z</time></trkpt>
<trkpt lat="43.2705183" lon="-2.8497717"><time>2026-09-13T11:57:43Z</time></trkpt>
<trkpt lat="43.2699833" lon="-2.8491983"><time>2026-09-13T11:57:45Z</time></trkpt>
<trkpt lat="43.2695183" lon="-2.84863"><time>2026-09-13T11:57:47Z</time></trkpt>
<trkpt lat="43.2690933" lon="-2.8480383"><time>2026-09-13T11:57:49Z</time></trkpt>
<trkpt lat="43.2686617" lon="-2.8473983"><time>2026-09-13T11:57:51Z</time></trkpt>
<trkpt lat="43.268235" lon="-2.8467617"><time>2026-09-13T11:57:53Z</time></trkpt>
<trkpt lat="43.266985" lon="-2.8449"><time>2026-09-13T11:57:59Z</time></trkpt>
<trkpt lat="43.2668" lon="-2.84423"><time>2026-09-13T11:58:01Z</time></trkpt>
<trkpt lat="43.2666017" lon="-2.8434617"><time>2026-09-13T11:58:03Z</time></trkpt>
<trkpt lat="43.26678" lon="-2.8424217"><time>2026-09-13T11:58:05Z</time></trkpt>
<trkpt lat="43.2666983" lon="-2.84155"><time>2026-09-13T11:58:07Z</time></trkpt>
<trkpt lat="43.2666133" lon="-2.8406767"><time>2026-09-13T11:58:09Z</time></trkpt>
<trkpt lat="43.2666" lon="-2.8397833"><time>2026-09-13T11:58:11Z</time></trkpt>
<trkpt lat="43.2665" lon="-2.8389083"><time>2026-09-13T11:58:13Z</time></trkpt>
<trkpt lat="43.266335" lon="-2.8380917"><time>2026-09-13T11:58:15Z</time></trkpt>
<trkpt lat="43.2661217" lon="-2.837315"><time>2026-09-13T11:58:17Z</time></trkpt>
<trkpt lat="43.2658733" lon="-2.8365983"><time>2026-09-13T11:58:19Z</time></trkpt>
<trkpt lat="43.2655833" lon="-2.8359117"><time>2026-09-13T11:58:21Z</time></trkpt>
<trkpt lat="43.265305" lon="-2.8352333"><time>2026-09-13T11:58:23Z</time></trkpt>
<trkpt lat="43.265015" lon="-2.8345567"><time>2026-09-13T11:58:25Z</time></trkpt>
<trkpt lat="43.2647533" lon="-2.8338583"><time>2026-09-13T11:58:27Z</time></trkpt>
<trkpt lat="43.26454" lon="-2.8331217"><time>2026-09-13T11:58:29Z</time></trkpt>
<trkpt lat="43.26437" lon="-2.8323983"><time>2026-09-13T11:58:31Z</time></trkpt>
<trkpt lat="43.26422" lon="-2.8316933"><time>2026-09-13T11:58:33Z</time></trkpt>
<trkpt lat="43.264105" lon="-2.8309667"><time>2026-09-13T11:58:35Z</time></trkpt>
<trkpt lat="43.26405" lon="-2.83021"><time>2026-09-13T11:58:37Z</time></trkpt>
<trkpt lat="43.264005" lon="-2.8294283"><time>2026-09-13T11:58:39Z</time></trkpt>
<trkpt lat="43.2640333" lon="-2.8286083"><time>2026-09-13T11:58:41Z</time></trkpt>
<trkpt lat="43.26403" lon="-2.8278133"><time>2026-09-13T11:58:43Z</time></trkpt>
<trkpt lat="43.2639933" lon="-2.8270383"><time>2026-09-13T11:58:45Z</time></trkpt>
<trkpt lat="43.26388" lon="-2.82625"><time>2026-09-13T11:58:47Z</time></trkpt>
<trkpt lat="43.263765" lon="-2.8254883"><time>2026-09-13T11:58:49Z</time></trkpt>
<trkpt lat="43.2635983" lon="-2.8247383"><time>2026-09-13T11:58:51Z</time></trkpt>
<trkpt lat="43.26344" lon="-2.8240183"><time>2026-09-13T11:58:53Z</time></trkpt>
<trkpt lat="43.26344" lon="-2.8240183"><time>2026-09-13T11:59:00Z</time></trkpt>
<trkpt lat="43.26344" lon="-2.8240183"><time>2026-09-13T11:59:06Z</time></trkpt>
<trkpt lat="43.2626033" lon="-2.818535"><time>2026-09-13T11:59:08Z</time></trkpt>
<trkpt lat="43.2627217" lon="-2.8177833"><time>2026-09-13T11:59:10Z</time></trkpt>
<trkpt lat="43.2628" lon="-2.816995"><time>2026-09-13T11:59:12Z</time></trkpt>
<trkpt lat="43.2627833" lon="-2.8162817"><time>2026-09-13T11:59:14Z</time></trkpt>
<trkpt lat="43.2627217" lon="-2.8155433"><time>2026-09-13T11:59:16Z</time></trkpt>
<trkpt lat="43.2625717" lon="-2.81483"><time>2026-09-13T11:59:18Z</time></trkpt>
<trkpt lat="43.2623567" lon="-2.8141067"><time>2026-09-13T11:59:20Z</time></trkpt>
<trkpt lat="43.2620783" lon="-2.8133933"><time>2026-09-13T11:59:22Z</time></trkpt>
<trkpt lat="43.26176" lon="-2.81273"><time>2026-09-13T11:59:24Z</time></trkpt>
<trkpt lat="43.2614233" lon="-2.812055"><time>2026-09-13T11:59:26Z</time></trkpt>
<trkpt lat="43.26106" lon="-2.8114333"><time>2026-09-13T11:59:28Z</time></trkpt>
<trkpt lat="43.2606867" lon="-2.8108167"><time>2026-09-13T11:59:30Z</time></trkpt>
<trkpt lat="43.260235" lon="-2.810245"><time>2026-09-13T11:59:32Z</time></trkpt>
<trkpt lat="43.2597667" lon="-2.8097267"><time>2026-09-13T11:59:34Z</time></trkpt>
<trkpt lat="43.2592733" lon="-2.8092567"><time>2026-09-13T11:59:36Z</time></trkpt>
<trkpt lat="43.2587267" lon="-2.808835"><time>2026-09-13T11:59:38Z</time></trkpt>
<trkpt lat="43.2581367" lon="-2.8084917"><time>2026-09-13T11:59:40Z</time></trkpt>
<trkpt lat="43.2575533" lon="-2.8081383"><time>2026-09-13T11:59:42Z</time></trkpt>
<trkpt lat="43.2569683" lon="-2.8078033"><time>2026-09-13T11:59:44Z</time></trkpt>
<trkpt lat="43.256395" lon="-2.8074567"><time>2026-09-13T11:59:46Z</time></trkpt>
<trkpt lat="43.2558167" lon="-2.8070983"><time>2026-09-13T11:59:48Z</time></trkpt>
<trkpt lat="43.2552417" lon="-2.80669"><time>2026-09-13T11:59:50Z</time></trkpt>
<trkpt lat="43.2546817" lon="-2.8062467"><time>2026-09-13T11:59:52Z</time></trkpt>
<trkpt lat="43.254115" lon="-2.8058417"><time>2026-09-13T11:59:54Z</time></trkpt>
<trkpt lat="43.2535267" lon="-2.8054233"><time>2026-09-13T11:59:56Z</time></trkpt>
<trkpt lat="43.2529683" lon="-2.804985"><time>2026-09-13T11:59:58Z</time></trkpt>
<trkpt lat="43.2524167" lon="-2.8045433"><time>2026-09-13T12:00:00Z</time></trkpt>
<trkpt lat="43.2518983" lon="-2.8041233"><time>2026-09-13T12:00:02Z</time></trkpt>
<trkpt lat="43.251395" lon="-2.8037367"><time>2026-09-13T12:00:04Z</time></trkpt>
<trkpt lat="43.2509067" lon="-2.8033667"><time>2026-09-13T12:00:06Z</time></trkpt>
<trkpt lat="43.25039" lon="-2.8031"><time>2026-09-13T12:00:08Z</time></trkpt>
<trkpt lat="43.249865" lon="-2.8029667"><time>2026-09-13T12:00:10Z</time></trkpt>
<trkpt lat="43.249355" lon="-2.802905"><time>2026-09-13T12:00:12Z</time></trkpt>
<trkpt lat="43.2488767" lon="-2.80289"><time>2026-09-13T12:00:14Z</time></trkpt>
<trkpt lat="43.24848" lon="-2.8030467"><time>2026-09-13T12:00:16Z</time></trkpt>
<trkpt lat="43.2481867" lon="-2.8032617"><time>2026-09-13T12:00:18Z</time></trkpt>
<trkpt lat="43.2478317" lon="-2.8034033"><time>2026-09-13T12:00:20Z</time></trkpt>
<trkpt lat="43.2475233" lon="-2.8035267"><time>2026-09-13T12:00:22Z</time></trkpt>
<trkpt lat="43.2473" lon="-2.8038917"><time>2026-09-13T12:00:24Z</time></trkpt>
<trkpt lat="43.2470633" lon="-2.8042283"><time>2026-09-13T12:00:26Z</time></trkpt>
<trkpt lat="43.2469733" lon="-2.8047833"><time>2026-09-13T12:00:28Z</time></trkpt>
<trkpt lat="43.2467533" lon="-2.805035"><time>2026-09-13T12:00:30Z</time></trkpt>
<trkpt lat="43.2465083" lon="-2.80527"><time>2026-09-13T12:00:32Z</time></trkpt>
<trkpt lat="43.246265" lon="-2.8053917"><time>2026-09-13T12:00:34Z</time></trkpt>
<trkpt lat="43.24599" lon="-2.805495"><time>2026-09-13T12:00:36Z</time></trkpt>
<trkpt lat="43.2456833" lon="-2.8055233"><time>2026-09-13T12:00:38Z</time></trkpt>
<trkpt lat="43.2453817" lon="-2.8055117"><time>2026-09-13T12:00:40Z</time></trkpt>
<trkpt lat="43.2450517" lon="-2.8054"><time>2026-09-13T12:00:42Z</time></trkpt>
<trkpt lat="43.24471" lon="-2.8052667"><time>2026-09-13T12:00:44Z</time></trkpt>
<trkpt lat="43.2443367" lon="-2.80511"><time>2026-09-13T12:00:46Z</time></trkpt>
<trkpt lat="43.2439683" lon="-2.8050017"><time>2026-09-13T12:00:48Z</time></trkpt>
<trkpt lat="43.2436017" lon="-2.8049"><time>2026-09-13T12:00:50Z</time></trkpt>
<trkpt lat="43.2432417" lon="-2.8047233"><time>2026-09-13T12:00:52Z</time></trkpt>
<trkpt lat="43.2429183" lon="-2.804545"><time>2026-09-13T12:00:54Z</time></trkpt>
<trkpt lat="43.2426217" lon="-2.80427"><time>2026-09-13T12:00:56Z</time></trkpt>
<trkpt lat="43.2423833" lon="-2.8039767"><time>2026-09-13T12:00:58Z</time></trkpt>
<trkpt lat="43.2421733" lon="-2.8036067"><time>2026-09-13T12:01:00Z</time></trkpt>
<trkpt lat="43.2419783" lon="-2.8032667"><time>2026-09-13T12:01:02Z</time></trkpt>
<trkpt lat="43.2417733" lon="-2.80296"><time>2026-09-13T12:01:04Z</time></trkpt>
<trkpt lat="43.2415283" lon="-2.802705"><time>2026-09-13T12:01:06Z</time></trkpt>
<trkpt lat="43.2412633" lon="-2.8025067"><time>2026-09-13T12:01:08Z</time></trkpt>
<trkpt lat="43.24101" lon="-2.8022717"><time>2026-09-13T12:01:10Z</time></trkpt>
<trkpt lat="43.24077" lon="-2.8021867"><time>2026-09-13T12:01:12Z</time></trkpt>
<trkpt lat="43.2403433" lon="-2.8024633"><time>2026-09-13T12:01:14Z</time></trkpt>
<trkpt lat="43.2397983" lon="-2.8029467"><time>2026-09-13T12:01:16Z</time></trkpt>
<trkpt lat="43.2394233" lon="-2.8031"><time>2026-09-13T12:01:18Z</time></trkpt>
<trkpt lat="43.239025" lon="-2.8031983"><time>2026-09-13T12:01:20Z</time></trkpt>
<trkpt lat="43.2386067" lon="-2.8032183"><time>2026-09-13T12:01:22Z</time></trkpt>
<trkpt lat="43.2381983" lon="-2.8032417"><time>2026-09-13T12:01:24Z</time></trkpt>
<trkpt lat="43.237805" lon="-2.8033333"><time>2026-09-13T12:01:26Z</time></trkpt>
<trkpt lat="43.2374567" lon="-2.8034467"><time>2026-09-13T12:01:28Z</time></trkpt>
<trkpt lat="43.2371133" lon="-2.803515"><time>2026-09-13T12:01:30Z</time></trkpt>
<trkpt lat="43.2368267" lon="-2.8036217"><time>2026-09-13T12:01:32Z</time></trkpt>
<trkpt lat="43.2366117" lon="-2.8037333"><time>2026-09-13T12:01:34Z</time></trkpt>
<trkpt lat="43.2363967" lon="-2.80382"><time>2026-09-13T12:01:36Z</time></trkpt>
<trkpt lat="43.2362033" lon="-2.8038533"><time>2026-09-13T12:01:38Z</time></trkpt>
<trkpt lat="43.23605" lon="-2.8037633"><time>2026-09-13T12:01:40Z</time></trkpt>
<trkpt lat="43.23596" lon="-2.8035183"><time>2026-09-13T12:01:42Z</time></trkpt>
<trkpt lat="43.2360367" lon="-2.8031717"><time>2026-09-13T12:01:44Z</time></trkpt>
<trkpt lat="43.2360067" lon="-2.8027817"><time>2026-09-13T12:01:46Z</time></trkpt>
<trkpt lat="43.2359867" lon="-2.8023867"><time>2026-09-13T12:01:48Z</time></trkpt>
<trkpt lat="43.2359733" lon="-2.8019317"><time>2026-09-13T12:01:50Z</time></trkpt>
<trkpt lat="43.2359767" lon="-2.80144"><time>2026-09-13T12:01:52Z</time></trkpt>
<trkpt lat="43.2358933" lon="-2.80095"><time>2026-09-13T12:01:54Z</time></trkpt>
<trkpt lat="43.2358717" lon="-2.80045"><time>2026-09-13T12:01:56Z</time></trkpt>
<trkpt lat="43.2359833" lon="-2.7999317"><time>2026-09-13T12:01:58Z</time></trkpt>
<trkpt lat="43.2360067" lon="-2.799445"><time>2026-09-13T12:02:00Z</time></trkpt>
<trkpt lat="43.2359867" lon="-2.79899"><time>2026-09-13T12:02:02Z</time></trkpt>
<trkpt lat="43.2359333" lon="-2.7986167"><time>2026-09-13T12:02:04Z</time></trkpt>
<trkpt lat="43.235825" lon="-2.79831"><time>2026-09-13T12:02:06Z</time></trkpt>
<trkpt lat="43.23561" lon="-2.798025"><time>2026-09-13T12:02:08Z</time></trkpt>
<trkpt lat="43.235355" lon="-2.79778"><time>2026-09-13T12:02:10Z</time></trkpt>
<trkpt lat="43.235355" lon="-2.79778"><time>2026-09-13T12:02:16Z</time></trkpt>
<trkpt lat="43.2338183" lon="-2.796605"><time>2026-09-13T12:02:20Z</time></trkpt>
<trkpt lat="43.233685" lon="-2.7962433"><time>2026-09-13T12:02:22Z</time></trkpt>
<trkpt lat="43.2335483" lon="-2.795915"><time>2026-09-13T12:02:24Z</time></trkpt>
<trkpt lat="43.2333483" lon="-2.795535"><time>2026-09-13T12:02:26Z</time></trkpt>
<trkpt lat="43.2331567" lon="-2.795105"><time>2026-09-13T12:02:28Z</time></trkpt>
<trkpt lat="43.23296" lon="-2.7947"><time>2026-09-13T12:02:30Z</time></trkpt>
<trkpt lat="43.232805" lon="-2.7943467"><time>2026-09-13T12:02:32Z</time></trkpt>
<trkpt lat="43.2326383" lon="-2.793995"><time>2026-09-13T12:02:34Z</time></trkpt>
<trkpt lat="43.2325133" lon="-2.79364"><time>2026-09-13T12:02:36Z</time></trkpt>
<trkpt lat="43.23239" lon="-2.793305"><time>2026-09-13T12:02:38Z</time></trkpt>
<trkpt lat="43.232275" lon="-2.7930217"><time>2026-09-13T12:02:40Z</time></trkpt>
<trkpt lat="43.2321567" lon="-2.7927383"><time>2026-09-13T12:02:42Z</time></trkpt>
<trkpt lat="43.2320333" lon="-2.7924467"><time>2026-09-13T12:02:44Z</time></trkpt>
<trkpt lat="43.23191" lon="-2.79215"><time>2026-09-13T12:02:46Z</time></trkpt>
<trkpt lat="43.2317833" lon="-2.7918233"><time>2026-09-13T12:02:48Z</time></trkpt>
<trkpt lat="43.231635" lon="-2.7914717"><time>2026-09-13T12:02:50Z</time></trkpt>
<trkpt lat="43.2315183" lon="-2.7911267"><time>2026-09-13T12:02:52Z</time></trkpt>
<trkpt lat="43.2314133" lon="-2.7906967"><time>2026-09-13T12:02:54Z</time></trkpt>
<trkpt lat="43.2313583" lon="-2.7902483"><time>2026-09-13T12:02:56Z</time></trkpt>
<trkpt lat="43.2313517" lon="-2.7897433"><time>2026-09-13T12:02:58Z</time></trkpt>
<trkpt lat="43.2313183" lon="-2.7892967"><time>2026-09-13T12:03:00Z</time></trkpt>
<trkpt lat="43.23129" lon="-2.7888117"><time>2026-09-13T12:03:02Z</time></trkpt>
<trkpt lat="43.2312467" lon="-2.7883267"><time>2026-09-13T12:03:04Z</time></trkpt>
<trkpt lat="43.2312017" lon="-2.7878067"><time>2026-09-13T12:03:06Z</time></trkpt>
<trkpt lat="43.23115" lon="-2.7872383"><time>2026-09-13T12:03:08Z</time></trkpt>
<trkpt lat="43.2310917" lon="-2.7866917"><time>2026-09-13T12:03:10Z</time></trkpt>
<trkpt lat="43.231045" lon="-2.7861833"><time>2026-09-13T12:03:12Z</time></trkpt>
<trkpt lat="43.23102" lon="-2.785715"><time>2026-09-13T12:03:14Z</time></trkpt>
<trkpt lat="43.2309933" lon="-2.7852417"><time>2026-09-13T12:03:16Z</time></trkpt>
<trkpt lat="43.2309633" lon="-2.7847933"><time>2026-09-13T12:03:18Z</time></trkpt>
<trkpt lat="43.2309217" lon="-2.7843583"><time>2026-09-13T12:03:20Z</time></trkpt>
<trkpt lat="43.230865" lon="-2.7839683"><time>2026-09-13T12:03:22Z</time></trkpt>
<trkpt lat="43.230825" lon="-2.7836083"><time>2026-09-13T12:03:24Z</time></trkpt>
<trkpt lat="43.2308633" lon="-2.78323"><time>2026-09-13T12:03:26Z</time></trkpt>
<trkpt lat="43.2307933" lon="-2.7828567"><time>2026-09-13T12:03:28Z</time></trkpt>
<trkpt lat="43.23072" lon="-2.78247"><time>2026-09-13T12:03:30Z</time></trkpt>
<trkpt lat="43.23068" lon="-2.7820667"><time>2026-09-13T12:03:32Z</time></trkpt>
<trkpt lat="43.230645" lon="-2.781665"><time>2026-09-13T12:03:34Z</time></trkpt>
<trkpt lat="43.2307" lon="-2.7812417"><time>2026-09-13T12:03:36Z</time></trkpt>
<trkpt lat="43.2307467" lon="-2.7808167"><time>2026-09-13T12:03:38Z</time></trkpt>
<trkpt lat="43.2308283" lon="-2.7803867"><time>2026-09-13T12:03:40Z</time></trkpt>
<trkpt lat="43.2308983" lon="-2.7799367"><time>2026-09-13T12:03:42Z</time></trkpt>
<trkpt lat="43.2309417" lon="-2.7795167"><time>2026-09-13T12:03:44Z</time></trkpt>
<trkpt lat="43.231" lon="-2.7791417"><time>2026-09-13T12:03:46Z</time></trkpt>
<trkpt lat="43.231055" lon="-2.7787783"><time>2026-09-13T12:03:48Z</time></trkpt>
<trkpt lat="43.23107" lon="-2.7784817"><time>2026-09-13T12:03:50Z</time></trkpt>
<trkpt lat="43.2310767" lon="-2.7782033"><time>2026-09-13T12:03:52Z</time></trkpt>
<trkpt lat="43.2311033" lon="-2.7779583"><time>2026-09-13T12:03:54Z</time></trkpt>
<trkpt lat="43.2311567" lon="-2.7776733"><time>2026-09-13T12:03:56Z</time></trkpt>
<trkpt lat="43.2311683" lon="-2.7773867"><time>2026-09-13T12:03:58Z</time></trkpt>
<trkpt lat="43.2311283" lon="-2.777065"><time>2026-09-13T12:04:00Z</time></trkpt>
<trkpt lat="43.2310983" lon="-2.7767017"><time>2026-09-13T12:04:02Z</time></trkpt>
<trkpt lat="43.2310333" lon="-2.7763017"><time>2026-09-13T12:04:04Z</time></trkpt>
<trkpt lat="43.23095" lon="-2.775875"><time>2026-09-13T12:04:06Z</time></trkpt>
<trkpt lat="43.2308783" lon="-2.775435"><time>2026-09-13T12:04:08Z</time></trkpt>
<trkpt lat="43.2308183" lon="-2.77499"><time>2026-09-13T12:04:10Z</time></trkpt>
<trkpt lat="43.2307767" lon="-2.7745583"><time>2026-09-13T12:04:12Z</time></trkpt>
<trkpt lat="43.2307067" lon="-2.77416"><time>2026-09-13T12:04:14Z</time></trkpt>
<trkpt lat="43.23066" lon="-2.7737683"><time>2026-09-13T12:04:16Z</time></trkpt>
<trkpt lat="43.2306483" lon="-2.773425"><time>2026-09-13T12:04:18Z</time></trkpt>
<trkpt lat="43.2306367" lon="-2.7731233"><time>2026-09-13T12:04:20Z</time></trkpt>
<trkpt lat="43.23058" lon="-2.7728467"><time>2026-09-13T12:04:22Z</time></trkpt>
<trkpt lat="43.2305433" lon="-2.7725317"><time>2026-09-13T12:04:24Z</time></trkpt>
<trkpt lat="43.2305433" lon="-2.7721683"><time>2026-09-13T12:04:26Z</time></trkpt>
<trkpt lat="43.2305583" lon="-2.7717733"><time>2026-09-13T12:04:28Z</time></trkpt>
<trkpt lat="43.2306533" lon="-2.771355"><time>2026-09-13T12:04:30Z</time></trkpt>
<trkpt lat="43.2306867" lon="-2.7709233"><time>2026-09-13T12:04:32Z</time></trkpt>
<trkpt lat="43.2307517" lon="-2.77046"><time>2026-09-13T12:04:34Z</time></trkpt>
<trkpt lat="43.230845" lon="-2.7699883"><time>2026-09-13T12:04:36Z</time></trkpt>
<trkpt lat="43.23094" lon="-2.7695217"><time>2026-09-13T12:04:38Z</time></trkpt>
<trkpt lat="43.2310067" lon="-2.769065"><time>2026-09-13T12:04:40Z</time></trkpt>
<trkpt lat="43.2310433" lon="-2.768605"><time>2026-09-13T12:04:42Z</time></trkpt>
<trkpt lat="43.23104" lon="-2.7681383"><time>2026-09-13T12:04:44Z</time></trkpt>
<trkpt lat="43.2309883" lon="-2.7676533"><time>2026-09-13T12:04:46Z</time></trkpt>
<trkpt lat="43.2309333" lon="-2.7671417"><time>2026-09-13T12:04:48Z</time></trkpt>
<trkpt lat="43.2308733" lon="-2.7666367"><time>2026-09-13T12:04:50Z</time></trkpt>
<trkpt lat="43.2307783" lon="-2.766145"><time>2026-09-13T12:04:52Z</time></trkpt>
<trkpt lat="43.2306683" lon="-2.7656167"><time>2026-09-13T12:04:54Z</time></trkpt>
<trkpt lat="43.2305667" lon="-2.7650517"><time>2026-09-13T12:04:56Z</time></trkpt>
<trkpt lat="43.2304633" lon="-2.764495"><time>2026-09-13T12:04:58Z</time></trkpt>
<trkpt lat="43.2303617" lon="-2.7639417"><time>2026-09-13T12:05:00Z</time></trkpt>
<trkpt lat="43.230265" lon="-2.7633817"><time>2026-09-13T12:05:02Z</time></trkpt>
<trkpt lat="43.2301633" lon="-2.762795"><time>2026-09-13T12:05:04Z</time></trkpt>
<trkpt lat="43.2300517" lon="-2.7622367"><time>2026-09-13T12:05:06Z</time></trkpt>
<trkpt lat="43.229965" lon="-2.76167"><time>2026-09-13T12:05:08Z</time></trkpt>
<trkpt lat="43.2298967" lon="-2.7610717"><time>2026-09-13T12:05:10Z</time></trkpt>
<trkpt lat="43.22979" lon="-2.7605267"><time>2026-09-13T12:05:12Z</time></trkpt>
<trkpt lat="43.229705" lon="-2.7600017"><time>2026-09-13T12:05:14Z</time></trkpt>
<trkpt lat="43.229635" lon="-2.7594767"><time>2026-09-13T12:05:16Z</time></trkpt>
<trkpt lat="43.229585" lon="-2.7589833"><time>2026-09-13T12:05:18Z</time></trkpt>
<trkpt lat="43.22953" lon="-2.7585"><time>2026-09-13T12:05:20Z</time></trkpt>
<trkpt lat="43.229485" lon="-2.75803"><time>2026-09-13T12:05:22Z</time></trkpt>
<trkpt lat="43.2293717" lon="-2.7576867"><time>2026-09-13T12:05:24Z</time></trkpt>
<trkpt lat="43.2292667" lon="-2.7574067"><time>2026-09-13T12:05:26Z</time></trkpt>
<trkpt lat="43.22916" lon="-2.7571767"><time>2026-09-13T12:05:28Z</time></trkpt>
<trkpt lat="43.229125" lon="-2.75694"><time>2026-09-13T12:05:30Z</time></trkpt>
<trkpt lat="43.22924" lon="-2.7567"><time>2026-09-13T12:05:32Z</time></trkpt>
<trkpt lat="43.2293233" lon="-2.7563833"><time>2026-09-13T12:05:34Z</time></trkpt>
<trkpt lat="43.2293083" lon="-2.7560183"><time>2026-09-13T12:05:36Z</time></trkpt>
<trkpt lat="43.229205" lon="-2.7556433"><time>2026-09-13T12:05:38Z</time></trkpt>
<trkpt lat="43.22916" lon="-2.755195"><time>2026-09-13T12:05:40Z</time></trkpt>
<trkpt lat="43.22908" lon="-2.7547433"><time>2026-09-13T12:05:42Z</time></trkpt>
<trkpt lat="43.228975" lon="-2.754245"><time>2026-09-13T12:05:44Z</time></trkpt>
<trkpt lat="43.2289" lon="-2.7537283"><time>2026-09-13T12:05:46Z</time></trkpt>
<trkpt lat="43.2288233" lon="-2.7532517"><time>2026-09-13T12:05:48Z</time></trkpt>
<trkpt lat="43.22874" lon="-2.7526683"><time>2026-09-13T12:05:50Z</time></trkpt>
<trkpt lat="43.228645" lon="-2.7521533"><time>2026-09-13T12:05:52Z</time></trkpt>
<trkpt lat="43.2284983" lon="-2.75164"><time>2026-09-13T12:05:54Z</time></trkpt>
<trkpt lat="43.2283767" lon="-2.7511233"><time>2026-09-13T12:05:56Z</time></trkpt>
<trkpt lat="43.2282617" lon="-2.7506233"><time>2026-09-13T12:05:58Z</time></trkpt>
<trkpt lat="43.2281683" lon="-2.7500483"><time>2026-09-13T12:06:00Z</time></trkpt>
<trkpt lat="43.2281417" lon="-2.7494367"><time>2026-09-13T12:06:02Z</time></trkpt>
<trkpt lat="43.2281367" lon="-2.7488633"><time>2026-09-13T12:06:04Z</time></trkpt>
<trkpt lat="43.22816" lon="-2.74828"><time>2026-09-13T12:06:06Z</time></trkpt>
<trkpt lat="43.2281883" lon="-2.747695"><time>2026-09-13T12:06:08Z</time></trkpt>
<trkpt lat="43.2282417" lon="-2.7471217"><time>2026-09-13T12:06:10Z</time></trkpt>
<trkpt lat="43.2283067" lon="-2.7465233"><time>2026-09-13T12:06:12Z</time></trkpt>
<trkpt lat="43.2283167" lon="-2.7459317"><time>2026-09-13T12:06:14Z</time></trkpt>
<trkpt lat="43.2282883" lon="-2.74533"><time>2026-09-13T12:06:16Z</time></trkpt>
<trkpt lat="43.2282" lon="-2.74473"><time>2026-09-13T12:06:18Z</time></trkpt>
<trkpt lat="43.2280433" lon="-2.74418"><time>2026-09-13T12:06:20Z</time></trkpt>
<trkpt lat="43.227815" lon="-2.7436817"><time>2026-09-13T12:06:22Z</time></trkpt>
<trkpt lat="43.227525" lon="-2.7431783"><time>2026-09-13T12:06:24Z</time></trkpt>
<trkpt lat="43.2272617" lon="-2.742665"><time>2026-09-13T12:06:26Z</time></trkpt>
<trkpt lat="43.2270233" lon="-2.7421683"><time>2026-09-13T12:06:28Z</time></trkpt>
<trkpt lat="43.226845" lon="-2.7417"><time>2026-09-13T12:06:30Z</time></trkpt>
<trkpt lat="43.2267667" lon="-2.7411717"><time>2026-09-13T12:06:32Z</time></trkpt>
<trkpt lat="43.2266817" lon="-2.740605"><time>2026-09-13T12:06:34Z</time></trkpt>
<trkpt lat="43.2265817" lon="-2.74002"><time>2026-09-13T12:06:36Z</time></trkpt>
<trkpt lat="43.2264883" lon="-2.73946"><time>2026-09-13T12:06:38Z</time></trkpt>
<trkpt lat="43.2263583" lon="-2.7388983"><time>2026-09-13T12:06:40Z</time></trkpt>
<trkpt lat="43.2261517" lon="-2.7382867"><time>2026-09-13T12:06:42Z</time></trkpt>
<trkpt lat="43.2259767" lon="-2.73772"><time>2026-09-13T12:06:44Z</time></trkpt>
<trkpt lat="43.225765" lon="-2.7371517"><time>2026-09-13T12:06:46Z</time></trkpt>
<trkpt lat="43.22557" lon="-2.7365933"><time>2026-09-13T12:06:48Z</time></trkpt>
<trkpt lat="43.225365" lon="-2.7360833"><time>2026-09-13T12:06:50Z</time></trkpt>
<trkpt lat="43.225155" lon="-2.7355683"><time>2026-09-13T12:06:52Z</time></trkpt>
<trkpt lat="43.2249467" lon="-2.7350567"><time>2026-09-13T12:06:54Z</time></trkpt>
<trkpt lat="43.2247833" lon="-2.7345167"><time>2026-09-13T12:06:56Z</time></trkpt>
<trkpt lat="43.2246883" lon="-2.733995"><time>2026-09-13T12:06:58Z</time></trkpt>
<trkpt lat="43.2245883" lon="-2.7334517"><time>2026-09-13T12:07:00Z</time></trkpt>
<trkpt lat="43.2245" lon="-2.7329333"><time>2026-09-13T12:07:02Z</time></trkpt>
<trkpt lat="43.224415" lon="-2.732395"><time>2026-09-13T12:07:04Z</time></trkpt>
<trkpt lat="43.2243233" lon="-2.731915"><time>2026-09-13T12:07:06Z</time></trkpt>
<trkpt lat="43.224235" lon="-2.7314983"><time>2026-09-13T12:07:08Z</time></trkpt>
<trkpt lat="43.2241467" lon="-2.7311367"><time>2026-09-13T12:07:10Z</time></trkpt>
<trkpt lat="43.2240283" lon="-2.7308617"><time>2026-09-13T12:07:12Z</time></trkpt>
<trkpt lat="43.2239383" lon="-2.730515"><time>2026-09-13T12:07:14Z</time></trkpt>
<trkpt lat="43.2238133" lon="-2.7302667"><time>2026-09-13T12:07:16Z</time></trkpt>
<trkpt lat="43.2236933" lon="-2.7299283"><time>2026-09-13T12:07:18Z</time></trkpt>
<trkpt lat="43.22357" lon="-2.7296483"><time>2026-09-13T12:07:20Z</time></trkpt>
<trkpt lat="43.2234833" lon="-2.7293367"><time>2026-09-13T12:07:22Z</time></trkpt>
<trkpt lat="43.2234267" lon="-2.7290317"><time>2026-09-13T12:07:24Z</time></trkpt>
<trkpt lat="43.2234433" lon="-2.7287183"><time>2026-09-13T12:07:26Z</time></trkpt>
<trkpt lat="43.2234533" lon="-2.728435"><time>2026-09-13T12:07:28Z</time></trkpt>
<trkpt lat="43.2234667" lon="-2.7282"><time>2026-09-13T12:07:30Z</time></trkpt>
<trkpt lat="43.2235433" lon="-2.7281683"><time>2026-09-13T12:07:32Z</time></trkpt>
<trkpt lat="43.2236867" lon="-2.72815"><time>2026-09-13T12:07:34Z</time></trkpt>
<trkpt lat="43.2238333" lon="-2.7280883"><time>2026-09-13T12:07:36Z</time></trkpt>
<trkpt lat="43.2239717" lon="-2.728105"><time>2026-09-13T12:07:38Z</time></trkpt>
<trkpt lat="43.2241767" lon="-2.7281867"><time>2026-09-13T12:07:40Z</time></trkpt>
<trkpt lat="43.224405" lon="-2.7283667"><time>2026-09-13T12:07:42Z</time></trkpt>
<trkpt lat="43.2246317" lon="-2.7284517"><time>2026-09-13T12:07:44Z</time></trkpt>
<trkpt lat="43.224915" lon="-2.7286467"><time>2026-09-13T12:07:46Z</time></trkpt>
<trkpt lat="43.2251933" lon="-2.72899"><time>2026-09-13T12:07:48Z</time></trkpt>
<trkpt lat="43.2255217" lon="-2.7293783"><time>2026-09-13T12:07:50Z</time></trkpt>
<trkpt lat="43.2258933" lon="-2.72985"><time>2026-09-13T12:07:52Z</time></trkpt>
<trkpt lat="43.2262567" lon="-2.7302383"><time>2026-09-13T12:07:54Z</time></trkpt>
<trkpt lat="43.22656" lon="-2.73052"><time>2026-09-13T12:07:56Z</time></trkpt>
<trkpt lat="43.226855" lon="-2.7306833"><time>2026-09-13T12:07:58Z</time></trkpt>
<trkpt lat="43.2271433" lon="-2.73082"><time>2026-09-13T12:08:00Z</time></trkpt>
<trkpt lat="43.2274767" lon="-2.7307967"><time>2026-09-13T12:08:02Z</time></trkpt>
<trkpt lat="43.22787" lon="-2.7306183"><time>2026-09-13T12:08:04Z</time></trkpt>
<trkpt lat="43.2283" lon="-2.7304183"><time>2026-09-13T12:08:06Z</time></trkpt>
<trkpt lat="43.2287367" lon="-2.73019"><time>2026-09-13T12:08:08Z</time></trkpt>
<trkpt lat="43.2291767" lon="-2.7299467"><time>2026-09-13T12:08:10Z</time></trkpt>
<trkpt lat="43.229605" lon="-2.7296333"><time>2026-09-13T12:08:12Z</time></trkpt>
<trkpt lat="43.2301083" lon="-2.7293117"><time>2026-09-13T12:08:14Z</time></trkpt>
<trkpt lat="43.2305983" lon="-2.72904"><time>2026-09-13T12:08:16Z</time></trkpt>
<trkpt lat="43.23106" lon="-2.72877"><time>2026-09-13T12:08:18Z</time></trkpt>
<trkpt lat="43.2315567" lon="-2.7285667"><time>2026-09-13T12:08:20Z</time></trkpt>
<trkpt lat="43.2320817" lon="-2.728425"><time>2026-09-13T12:08:22Z</time></trkpt>
<trkpt lat="43.2326033" lon="-2.7283"><time>2026-09-13T12:08:24Z</time></trkpt>
<trkpt lat="43.2331267" lon="-2.7281167"><time>2026-09-13T12:08:26Z</time></trkpt>
<trkpt lat="43.2336567" lon="-2.7278783"><time>2026-09-13T12:08:28Z</time></trkpt>
<trkpt lat="43.2341417" lon="-2.7275717"><time>2026-09-13T12:08:30Z</time></trkpt>
<trkpt lat="43.23461" lon="-2.72721"><time>2026-09-13T12:08:32Z</time></trkpt>
<trkpt lat="43.2350633" lon="-2.7267983"><time>2026-09-13T12:08:34Z</time></trkpt>
<trkpt lat="43.2354783" lon="-2.726335"><time>2026-09-13T12:08:36Z</time></trkpt>
<trkpt lat="43.23584" lon="-2.7258283"><time>2026-09-13T12:08:38Z</time></trkpt>
<trkpt lat="43.236145" lon="-2.7252333"><time>2026-09-13T12:08:40Z</time></trkpt>
<trkpt lat="43.2364017" lon="-2.7245733"><time>2026-09-13T12:08:42Z</time></trkpt>
<trkpt lat="43.2366183" lon="-2.7238783"><time>2026-09-13T12:08:44Z</time></trkpt>
<trkpt lat="43.236805" lon="-2.7231767"><time>2026-09-13T12:08:46Z</time></trkpt>
<trkpt lat="43.2369867" lon="-2.7224217"><time>2026-09-13T12:08:48Z</time></trkpt>
<trkpt lat="43.2372" lon="-2.7217033"><time>2026-09-13T12:08:50Z</time></trkpt>
<trkpt lat="43.2374367" lon="-2.720985"><time>2026-09-13T12:08:52Z</time></trkpt>
<trkpt lat="43.2377467" lon="-2.7202967"><time>2026-09-13T12:08:54Z</time></trkpt>
<trkpt lat="43.23806" lon="-2.7195667"><time>2026-09-13T12:08:56Z</time></trkpt>
<trkpt lat="43.2383817" lon="-2.7188367"><time>2026-09-13T12:08:58Z</time></trkpt>
<trkpt lat="43.2386433" lon="-2.7181017"><time>2026-09-13T12:09:00Z</time></trkpt>
<trkpt lat="43.2389767" lon="-2.7173467"><time>2026-09-13T12:09:02Z</time></trkpt>
<trkpt lat="43.239305" lon="-2.71659"><time>2026-09-13T12:09:04Z</time></trkpt>
<trkpt lat="43.2396133" lon="-2.71584"><time>2026-09-13T12:09:06Z</time></trkpt>
<trkpt lat="43.2396133" lon="-2.71584"><time>2026-09-13T12:09:12Z</time></trkpt>
<trkpt lat="43.2396133" lon="-2.71584"><time>2026-09-13T12:09:17Z</time></trkpt>
<trkpt lat="43.2396133" lon="-2.71584"><time>2026-09-13T12:09:22Z</time></trkpt>
<trkpt lat="43.244315" lon="-2.7084783"><time>2026-09-13T12:09:28Z</time></trkpt>
<trkpt lat="43.2444083" lon="-2.7078817"><time>2026-09-13T12:09:30Z</time></trkpt>
<trkpt lat="43.24464" lon="-2.7074817"><time>2026-09-13T12:09:32Z</time></trkpt>
<trkpt lat="43.2448867" lon="-2.7072567"><time>2026-09-13T12:09:34Z</time></trkpt>
<trkpt lat="43.24507" lon="-2.70682"><time>2026-09-13T12:09:36Z</time></trkpt>
<trkpt lat="43.245265" lon="-2.706415"><time>2026-09-13T12:09:38Z</time></trkpt>
<trkpt lat="43.2454717" lon="-2.7060783"><time>2026-09-13T12:09:40Z</time></trkpt>
<trkpt lat="43.2456733" lon="-2.7058183"><time>2026-09-13T12:09:42Z</time></trkpt>
<trkpt lat="43.2458783" lon="-2.7055567"><time>2026-09-13T12:09:44Z</time></trkpt>
<trkpt lat="43.246125" lon="-2.7052717"><time>2026-09-13T12:09:46Z</time></trkpt>
<trkpt lat="43.2463833" lon="-2.7049717"><time>2026-09-13T12:09:48Z</time></trkpt>
<trkpt lat="43.246645" lon="-2.7046783"><time>2026-09-13T12:09:50Z</time></trkpt>
<trkpt lat="43.246875" lon="-2.7043883"><time>2026-09-13T12:09:52Z</time></trkpt>
<trkpt lat="43.2470783" lon="-2.7040717"><time>2026-09-13T12:09:54Z</time></trkpt>
<trkpt lat="43.2471417" lon="-2.7037267"><time>2026-09-13T12:09:56Z</time></trkpt>
<trkpt lat="43.24711" lon="-2.70331"><time>2026-09-13T12:09:58Z</time></trkpt>
<trkpt lat="43.2471583" lon="-2.7029033"><time>2026-09-13T12:10:00Z</time></trkpt>
<trkpt lat="43.2472283" lon="-2.7025"><time>2026-09-13T12:10:02Z</time></trkpt>
<trkpt lat="43.2473317" lon="-2.70215"><time>2026-09-13T12:10:04Z</time></trkpt>
<trkpt lat="43.247425" lon="-2.7018083"><time>2026-09-13T12:10:06Z</time></trkpt>
<trkpt lat="43.2475833" lon="-2.7015217"><time>2026-09-13T12:10:08Z</time></trkpt>
<trkpt lat="43.2478033" lon="-2.7012883"><time>2026-09-13T12:10:10Z</time></trkpt>
<trkpt lat="43.2480817" lon="-2.7011067"><time>2026-09-13T12:10:12Z</time></trkpt>
<trkpt lat="43.248375" lon="-2.7009567"><time>2026-09-13T12:10:14Z</time></trkpt>
<trkpt lat="43.2486733" lon="-2.7008083"><time>2026-09-13T12:10:16Z</time></trkpt>
<trkpt lat="43.2489233" lon="-2.7006067"><time>2026-09-13T12:10:18Z</time></trkpt>
<trkpt lat="43.2491033" lon="-2.7002983"><time>2026-09-13T12:10:20Z</time></trkpt>
<trkpt lat="43.2491633" lon="-2.6999083"><time>2026-09-13T12:10:22Z</time></trkpt>
<trkpt lat="43.24914" lon="-2.6994717"><time>2026-09-13T12:10:24Z</time></trkpt>
<trkpt lat="43.249185" lon="-2.6990333"><time>2026-09-13T12:10:26Z</time></trkpt>
<trkpt lat="43.2493117" lon="-2.6985717"><time>2026-09-13T12:10:28Z</time></trkpt>
<trkpt lat="43.249505" lon="-2.6981283"><time>2026-09-13T12:10:30Z</time></trkpt>
<trkpt lat="43.2497217" lon="-2.6976683"><time>2026-09-13T12:10:32Z</time></trkpt>
<trkpt lat="43.249945" lon="-2.697235"><time>2026-09-13T12:10:34Z</time></trkpt>
<trkpt lat="43.2501567" lon="-2.6968533"><time>2026-09-13T12:10:36Z</time></trkpt>
<trkpt lat="43.2503767" lon="-2.6964233"><time>2026-09-13T12:10:38Z</time></trkpt>
<trkpt lat="43.2506067" lon="-2.6959933"><time>2026-09-13T12:10:40Z</time></trkpt>
<trkpt lat="43.2508367" lon="-2.695555"><time>2026-09-13T12:10:42Z</time></trkpt>
<trkpt lat="43.2510767" lon="-2.695135"><time>2026-09-13T12:10:44Z</time></trkpt>
<trkpt lat="43.2512717" lon="-2.6947933"><time>2026-09-13T12:10:46Z</time></trkpt>
<trkpt lat="43.2514783" lon="-2.694425"><time>2026-09-13T12:10:48Z</time></trkpt>
<trkpt lat="43.2516583" lon="-2.6940283"><time>2026-09-13T12:10:50Z</time></trkpt>
<trkpt lat="43.25185" lon="-2.6936883"><time>2026-09-13T12:10:52Z</time></trkpt>
<trkpt lat="43.2520017" lon="-2.6934"><time>2026-09-13T12:10:54Z</time></trkpt>
<trkpt lat="43.2521533" lon="-2.6931"><time>2026-09-13T12:10:56Z</time></trkpt>
<trkpt lat="43.252305" lon="-2.6928017"><time>2026-09-13T12:10:58Z</time></trkpt>
<trkpt lat="43.2525117" lon="-2.692555"><time>2026-09-13T12:11:00Z</time></trkpt>
<trkpt lat="43.2527017" lon="-2.692235"><time>2026-09-13T12:11:02Z</time></trkpt>
<trkpt lat="43.252945" lon="-2.6919333"><time>2026-09-13T12:11:04Z</time></trkpt>
<trkpt lat="43.2531567" lon="-2.691595"><time>2026-09-13T12:11:06Z</time></trkpt>
<trkpt lat="43.253375" lon="-2.6912833"><time>2026-09-13T12:11:08Z</time></trkpt>
<trkpt lat="43.2535817" lon="-2.6910133"><time>2026-09-13T12:11:10Z</time></trkpt>
<trkpt lat="43.253795" lon="-2.6908133"><time>2026-09-13T12:11:12Z</time></trkpt>
<trkpt lat="43.254075" lon="-2.6906767"><time>2026-09-13T12:11:14Z</time></trkpt>
<trkpt lat="43.2543767" lon="-2.6906017"><time>2026-09-13T12:11:16Z</time></trkpt>
<trkpt lat="43.2546717" lon="-2.6906067"><time>2026-09-13T12:11:18Z</time></trkpt>
<trkpt lat="43.2549533" lon="-2.6906283"><time>2026-09-13T12:11:20Z</time></trkpt>
<trkpt lat="43.2552633" lon="-2.6906917"><time>2026-09-13T12:11:22Z</time></trkpt>
<trkpt lat="43.25554" lon="-2.6906883"><time>2026-09-13T12:11:24Z</time></trkpt>
<trkpt lat="43.2558133" lon="-2.6907767"><time>2026-09-13T12:11:26Z</time></trkpt>
<trkpt lat="43.2560833" lon="-2.690785"><time>2026-09-13T12:11:28Z</time></trkpt>
<trkpt lat="43.256365" lon="-2.690945"><time>2026-09-13T12:11:30Z</time></trkpt>
<trkpt lat="43.256615" lon="-2.6911233"><time>2026-09-13T12:11:32Z</time></trkpt>
<trkpt lat="43.2568567" lon="-2.691235"><time>2026-09-13T12:11:34Z</time></trkpt>
<trkpt lat="43.2571317" lon="-2.6912783"><time>2026-09-13T12:11:36Z</time></trkpt>
<trkpt lat="43.25741" lon="-2.691335"><time>2026-09-13T12:11:38Z</time></trkpt>
<trkpt lat="43.2577833" lon="-2.6912817"><time>2026-09-13T12:11:40Z</time></trkpt>
<trkpt lat="43.2581117" lon="-2.69113"><time>2026-09-13T12:11:42Z</time></trkpt>
<trkpt lat="43.2584367" lon="-2.6908333"><time>2026-09-13T12:11:44Z</time></trkpt>
<trkpt lat="43.2587083" lon="-2.6905917"><time>2026-09-13T12:11:46Z</time></trkpt>
<trkpt lat="43.2590167" lon="-2.6903317"><time>2026-09-13T12:11:48Z</time></trkpt>
<trkpt lat="43.25935" lon="-2.689975"><time>2026-09-13T12:11:50Z</time></trkpt>
<trkpt lat="43.25964" lon="-2.6896217"><time>2026-09-13T12:11:52Z</time></trkpt>
<trkpt lat="43.2599067" lon="-2.6893217"><time>2026-09-13T12:11:54Z</time></trkpt>
<trkpt lat="43.26012" lon="-2.6890783"><time>2026-09-13T12:11:56Z</time></trkpt>
<trkpt lat="43.26036" lon="-2.688905"><time>2026-09-13T12:11:58Z</time></trkpt>
<trkpt lat="43.2606183" lon="-2.6887367"><time>2026-09-13T12:12:00Z</time></trkpt>
<trkpt lat="43.2608667" lon="-2.6884917"><time>2026-09-13T12:12:02Z</time></trkpt>
<trkpt lat="43.2611483" lon="-2.6882867"><time>2026-09-13T12:12:04Z</time></trkpt>
<trkpt lat="43.261435" lon="-2.688075"><time>2026-09-13T12:12:06Z</time></trkpt>
<trkpt lat="43.2616333" lon="-2.6879233"><time>2026-09-13T12:12:08Z</time></trkpt>
<trkpt lat="43.2617833" lon="-2.6877083"><time>2026-09-13T12:12:10Z</time></trkpt>
<trkpt lat="43.2618717" lon="-2.687465"><time>2026-09-13T12:12:12Z</time></trkpt>
<trkpt lat="43.2618417" lon="-2.6871683"><time>2026-09-13T12:12:14Z</time></trkpt>
<trkpt lat="43.2617983" lon="-2.6867233"><time>2026-09-13T12:12:16Z</time></trkpt>
<trkpt lat="43.2618217" lon="-2.6862583"><time>2026-09-13T12:12:18Z</time></trkpt>
<trkpt lat="43.2618667" lon="-2.685835"><time>2026-09-13T12:12:20Z</time></trkpt>
<trkpt lat="43.2618017" lon="-2.68553"><time>2026-09-13T12:12:22Z</time></trkpt>
<trkpt lat="43.2618033" lon="-2.68532"><time>2026-09-13T12:12:24Z</time></trkpt>
<trkpt lat="43.2619233" lon="-2.68517"><time>2026-09-13T12:12:26Z</time></trkpt>
<trkpt lat="43.2621767" lon="-2.6851433"><time>2026-09-13T12:12:28Z</time></trkpt>
<trkpt lat="43.2625" lon="-2.6851833"><time>2026-09-13T12:12:30Z</time></trkpt>
<trkpt lat="43.2628383" lon="-2.6852667"><time>2026-09-13T12:12:32Z</time></trkpt>
<trkpt lat="43.2631933" lon="-2.6853867"><time>2026-09-13T12:12:34Z</time></trkpt>
<trkpt lat="43.2635517" lon="-2.6855017"><time>2026-09-13T12:12:36Z</time></trkpt>
<trkpt lat="43.2638983" lon="-2.6855833"><time>2026-09-13T12:12:38Z</time></trkpt>
<trkpt lat="43.264255" lon="-2.6856317"><time>2026-09-13T12:12:40Z</time></trkpt>
<trkpt lat="43.264595" lon="-2.6856867"><time>2026-09-13T12:12:42Z</time></trkpt>
<trkpt lat="43.2649233" lon="-2.6857917"><time>2026-09-13T12:12:44Z</time></trkpt>
<trkpt lat="43.2652767" lon="-2.6859133"><time>2026-09-13T12:12:46Z</time></trkpt>
<trkpt lat="43.2656233" lon="-2.6860217"><time>2026-09-13T12:12:48Z</time></trkpt>
<trkpt lat="43.265965" lon="-2.68602"><time>2026-09-13T12:12:50Z</time></trkpt>
<trkpt lat="43.2663367" lon="-2.68594"><time>2026-09-13T12:12:52Z</time></trkpt>
<trkpt lat="43.2666833" lon="-2.6859"><time>2026-09-13T12:12:54Z</time></trkpt>
<trkpt lat="43.26703" lon="-2.6858633"><time>2026-09-13T12:12:56Z</time></trkpt>
<trkpt lat="43.2673883" lon="-2.6858233"><time>2026-09-13T12:12:58Z</time></trkpt>
<trkpt lat="43.267785" lon="-2.6858083"><time>2026-09-13T12:13:00Z</time></trkpt>
<trkpt lat="43.2681517" lon="-2.6857683"><time>2026-09-13T12:13:02Z</time></trkpt>
<trkpt lat="43.26852" lon="-2.6857367"><time>2026-09-13T12:13:04Z</time></trkpt>
<trkpt lat="43.2688767" lon="-2.6857083"><time>2026-09-13T12:13:06Z</time></trkpt>
<trkpt lat="43.26922" lon="-2.6856717"><time>2026-09-13T12:13:08Z</time></trkpt>
<trkpt lat="43.269545" lon="-2.6856017"><time>2026-09-13T12:13:10Z</time></trkpt>
<trkpt lat="43.26987" lon="-2.6855267"><time>2026-09-13T12:13:12Z</time></trkpt>
<trkpt lat="43.270215" lon="-2.6854783"><time>2026-09-13T12:13:14Z</time></trkpt>
<trkpt lat="43.27056" lon="-2.6854133"><time>2026-09-13T12:13:16Z</time></trkpt>
<trkpt lat="43.27085" lon="-2.6853683"><time>2026-09-13T12:13:18Z</time></trkpt>
<trkpt lat="43.27111" lon="-2.6853467"><time>2026-09-13T12:13:20Z</time></trkpt>
<trkpt lat="43.2713567" lon="-2.685315"><time>2026-09-13T12:13:22Z</time></trkpt>
<trkpt lat="43.2716167" lon="-2.68529"><time>2026-09-13T12:13:24Z</time></trkpt>
<trkpt lat="43.271885" lon="-2.6852583"><time>2026-09-13T12:13:26Z</time></trkpt>
<trkpt lat="43.2721617" lon="-2.6852383"><time>2026-09-13T12:13:28Z</time></trkpt>
<trkpt lat="43.2724383" lon="-2.6851883"><time>2026-09-13T12:13:30Z</time></trkpt>
<trkpt lat="43.27274" lon="-2.6851583"><time>2026-09-13T12:13:32Z</time></trkpt>
<trkpt lat="43.2730733" lon="-2.68517"><time>2026-09-13T12:13:34Z</time></trkpt>
<trkpt lat="43.2734267" lon="-2.685165"><time>2026-09-13T12:13:36Z</time></trkpt>
<trkpt lat="43.2737583" lon="-2.6851117"><time>2026-09-13T12:13:38Z</time></trkpt>
<trkpt lat="43.27409" lon="-2.6850417"><time>2026-09-13T12:13:40Z</time></trkpt>
<trkpt lat="43.27446" lon="-2.6849767"><time>2026-09-13T12:13:42Z</time></trkpt>
<trkpt lat="43.27482" lon="-2.68491"><time>2026-09-13T12:13:44Z</time></trkpt>
<trkpt lat="43.275145" lon="-2.68484"><time>2026-09-13T12:13:46Z</time></trkpt>
<trkpt lat="43.2754267" lon="-2.6847717"><time>2026-09-13T12:13:48Z</time></trkpt>
<trkpt lat="43.2757183" lon="-2.6847183"><time>2026-09-13T12:13:50Z</time></trkpt>
<trkpt lat="43.27601" lon="-2.68469"><time>2026-09-13T12:13:52Z</time></trkpt>
<trkpt lat="43.2763167" lon="-2.6846717"><time>2026-09-13T12:13:54Z</time></trkpt>
<trkpt lat="43.27662" lon="-2.6846667"><time>2026-09-13T12:13:56Z</time></trkpt>
<trkpt lat="43.2769217" lon="-2.6846717"><time>2026-09-13T12:13:58Z</time></trkpt>
<trkpt lat="43.2772433" lon="-2.68468"><time>2026-09-13T12:14:00Z</time></trkpt>
<trkpt lat="43.2775533" lon="-2.68467"><time>2026-09-13T12:14:02Z</time></trkpt>
<trkpt lat="43.2778467" lon="-2.6846483"><time>2026-09-13T12:14:04Z</time></trkpt>
<trkpt lat="43.2781567" lon="-2.684645"><time>2026-09-13T12:14:06Z</time></trkpt>
<trkpt lat="43.2784767" lon="-2.6846417"><time>2026-09-13T12:14:08Z</time></trkpt>
<trkpt lat="43.2788117" lon="-2.68462"><time>2026-09-13T12:14:10Z</time></trkpt>
<trkpt lat="43.279155" lon="-2.6845883"><time>2026-09-13T12:14:12Z</time></trkpt>
<trkpt lat="43.2795" lon="-2.6845883"><time>2026-09-13T12:14:14Z</time></trkpt>
<trkpt lat="43.27982" lon="-2.6846217"><time>2026-09-13T12:14:16Z</time></trkpt>
<trkpt lat="43.280125" lon="-2.684665"><time>2026-09-13T12:14:18Z</time></trkpt>
<trkpt lat="43.2804317" lon="-2.684695"><time>2026-09-13T12:14:20Z</time></trkpt>
<trkpt lat="43.2807383" lon="-2.684785"><time>2026-09-13T12:14:22Z</time></trkpt>
<trkpt lat="43.28105" lon="-2.6848733"><time>2026-09-13T12:14:24Z</time></trkpt>
<trkpt lat="43.2813567" lon="-2.6849817"><time>2026-09-13T12:14:26Z</time></trkpt>
<trkpt lat="43.2816333" lon="-2.68511"><time>2026-09-13T12:14:28Z</time></trkpt>
<trkpt lat="43.2818483" lon="-2.68532"><time>2026-09-13T12:14:30Z</time></trkpt>
<trkpt lat="43.28201" lon="-2.6856317"><time>2026-09-13T12:14:32Z</time></trkpt>
<trkpt lat="43.2821067" lon="-2.6860017"><time>2026-09-13T12:14:34Z</time></trkpt>
<trkpt lat="43.2822317" lon="-2.6863283"><time>2026-09-13T12:14:36Z</time></trkpt>
<trkpt lat="43.2823617" lon="-2.6866517"><time>2026-09-13T12:14:38Z</time></trkpt>
<trkpt lat="43.2824867" lon="-2.6869783"><time>2026-09-13T12:14:40Z</time></trkpt>
<trkpt lat="43.28263" lon="-2.6873283"><time>2026-09-13T12:14:42Z</time></trkpt>
<trkpt lat="43.2828267" lon="-2.6876333"><time>2026-09-13T12:14:44Z</time></trkpt>
<trkpt lat="43.282995" lon="-2.6879333"><time>2026-09-13T12:14:46Z</time></trkpt>
<trkpt lat="43.283205" lon="-2.68821"><time>2026-09-13T12:14:48Z</time></trkpt>
<trkpt lat="43.2833933" lon="-2.6884683"><time>2026-09-13T12:14:50Z</time></trkpt>
<trkpt lat="43.2835733" lon="-2.688695"><time>2026-09-13T12:14:52Z</time></trkpt>
<trkpt lat="43.28375" lon="-2.6889117"><time>2026-09-13T12:14:54Z</time></trkpt>
<trkpt lat="43.2839517" lon="-2.6891267"><time>2026-09-13T12:14:56Z</time></trkpt>
<trkpt lat="43.28416" lon="-2.689315"><time>2026-09-13T12:14:58Z</time></trkpt>
<trkpt lat="43.2843583" lon="-2.6894767"><time>2026-09-13T12:15:00Z</time></trkpt>
<trkpt lat="43.284565" lon="-2.68961"><time>2026-09-13T12:15:02Z</time></trkpt>
<trkpt lat="43.28478" lon="-2.6897383"><time>2026-09-13T12:15:04Z</time></trkpt>
<trkpt lat="43.2850217" lon="-2.6898267"><time>2026-09-13T12:15:06Z</time></trkpt>
<trkpt lat="43.2852867" lon="-2.6898867"><time>2026-09-13T12:15:08Z</time></trkpt>
<trkpt lat="43.2855967" lon="-2.6898683"><time>2026-09-13T12:15:10Z</time></trkpt>
<trkpt lat="43.2858783" lon="-2.6897933"><time>2026-09-13T12:15:12Z</time></trkpt>
<trkpt lat="43.2861467" lon="-2.6897567"><time>2026-09-13T12:15:14Z</time></trkpt>
<trkpt lat="43.2863733" lon="-2.68974"><time>2026-09-13T12:15:16Z</time></trkpt>
<trkpt lat="43.28656" lon="-2.6897033"><time>2026-09-13T12:15:18Z</time></trkpt>
<trkpt lat="43.2866833" lon="-2.68965"><time>2026-09-13T12:15:20Z</time></trkpt>
<trkpt lat="43.28679" lon="-2.6896"><time>2026-09-13T12:15:22Z</time></trkpt>
<trkpt lat="43.2868783" lon="-2.68957"><time>2026-09-13T12:15:24Z</time></trkpt>
<trkpt lat="43.2869383" lon="-2.6895733"><time>2026-09-13T12:15:26Z</time></trkpt>
<trkpt lat="43.2869883" lon="-2.6895633"><time>2026-09-13T12:15:28Z</time></trkpt>
<trkpt lat="43.28703" lon="-2.6895683"><time>2026-09-13T12:15:30Z</time></trkpt>
<trkpt lat="43.2870483" lon="-2.6896167"><time>2026-09-13T12:15:32Z</time></trkpt>
<trkpt lat="43.28705" lon="-2.6896183"><time>2026-09-13T12:15:34Z</time></trkpt>
<trkpt lat="43.28705" lon="-2.6896183"><time>2026-09-13T12:15:36Z</time></trkpt>
<trkpt lat="43.28705" lon="-2.6896183"><time>2026-09-13T12:15:38Z</time></trkpt>
<trkpt lat="43.28705" lon="-2.6896183"><time>2026-09-13T12:15:40Z</time></trkpt>
<trkpt lat="43.2871133" lon="-2.68959"><time>2026-09-13T12:15:42Z</time></trkpt>
<trkpt lat="43.28724" lon="-2.68956"><time>2026-09-13T12:15:44Z</time></trkpt>
<trkpt lat="43.287365" lon="-2.6895233"><time>2026-09-13T12:15:46Z</time></trkpt>
<trkpt lat="43.2875217" lon="-2.6894667"><time>2026-09-13T12:15:48Z</time></trkpt>
<trkpt lat="43.2876933" lon="-2.6894133"><time>2026-09-13T12:15:50Z</time></trkpt>
<trkpt lat="43.2878817" lon="-2.6893783"><time>2026-09-13T12:15:52Z</time></trkpt>
<trkpt lat="43.2880783" lon="-2.6893467"><time>2026-09-13T12:15:54Z</time></trkpt>
<trkpt lat="43.288275" lon="-2.6893117"><time>2026-09-13T12:15:56Z</time></trkpt>
<trkpt lat="43.28846" lon="-2.6892617"><time>2026-09-13T12:15:58Z</time></trkpt>
<trkpt lat="43.2886483" lon="-2.6892167"><time>2026-09-13T12:16:00Z</time></trkpt>
<trkpt lat="43.2888283" lon="-2.6891417"><time>2026-09-13T12:16:02Z</time></trkpt>
<trkpt lat="43.289025" lon="-2.6890967"><time>2026-09-13T12:16:04Z</time></trkpt>
<trkpt lat="43.289255" lon="-2.6890483"><time>2026-09-13T12:16:06Z</time></trkpt>
<trkpt lat="43.2895533" lon="-2.6890467"><time>2026-09-13T12:16:08Z</time></trkpt>
<trkpt lat="43.28984" lon="-2.68901"><time>2026-09-13T12:16:10Z</time></trkpt>
<trkpt lat="43.2901267" lon="-2.6889667"><time>2026-09-13T12:16:12Z</time></trkpt>
<trkpt lat="43.2904333" lon="-2.688865"><time>2026-09-13T12:16:14Z</time></trkpt>
<trkpt lat="43.2907367" lon="-2.6887217"><time>2026-09-13T12:16:16Z</time></trkpt>
<trkpt lat="43.2909767" lon="-2.68856"><time>2026-09-13T12:16:18Z</time></trkpt>
<trkpt lat="43.2912067" lon="-2.688395"><time>2026-09-13T12:16:20Z</time></trkpt>
<trkpt lat="43.2914183" lon="-2.6882033"><time>2026-09-13T12:16:22Z</time></trkpt>
<trkpt lat="43.291635" lon="-2.6879833"><time>2026-09-13T12:16:24Z</time></trkpt>
<trkpt lat="43.2918783" lon="-2.6877933"><time>2026-09-13T12:16:26Z</time></trkpt>
<trkpt lat="43.2921317" lon="-2.687625"><time>2026-09-13T12:16:28Z</time></trkpt>
<trkpt lat="43.2924267" lon="-2.6874567"><time>2026-09-13T12:16:30Z</time></trkpt>
<trkpt lat="43.2927267" lon="-2.6873133"><time>2026-09-13T12:16:32Z</time></trkpt>
<trkpt lat="43.2930317" lon="-2.687235"><time>2026-09-13T12:16:34Z</time></trkpt>
<trkpt lat="43.2933467" lon="-2.6871833"><time>2026-09-13T12:16:36Z</time></trkpt>
<trkpt lat="43.2936617" lon="-2.687115"><time>2026-09-13T12:16:38Z</time></trkpt>
<trkpt lat="43.2939717" lon="-2.6870583"><time>2026-09-13T12:16:40Z</time></trkpt>
<trkpt lat="43.29428" lon="-2.6870083"><time>2026-09-13T12:16:42Z</time></trkpt>
<trkpt lat="43.2945883" lon="-2.6869333"><time>2026-09-13T12:16:44Z</time></trkpt>
<trkpt lat="43.294915" lon="-2.6868483"><time>2026-09-13T12:16:46Z</time></trkpt>
<trkpt lat="43.2952367" lon="-2.686785"><time>2026-09-13T12:16:48Z</time></trkpt>
<trkpt lat="43.295565" lon="-2.6867283"><time>2026-09-13T12:16:50Z</time></trkpt>
<trkpt lat="43.2959" lon="-2.68666"><time>2026-09-13T12:16:52Z</time></trkpt>
<trkpt lat="43.29623" lon="-2.6865533"><time>2026-09-13T12:16:54Z</time></trkpt>
<trkpt lat="43.296575" lon="-2.6864617"><time>2026-09-13T12:16:56Z</time></trkpt>
<trkpt lat="43.2969267" lon="-2.68636"><time>2026-09-13T12:16:58Z</time></trkpt>
<trkpt lat="43.2972717" lon="-2.6862433"><time>2026-09-13T12:17:00Z</time></trkpt>
<trkpt lat="43.29764" lon="-2.6861533"><time>2026-09-13T12:17:02Z</time></trkpt>
<trkpt lat="43.298035" lon="-2.6861183"><time>2026-09-13T12:17:04Z</time></trkpt>
<trkpt lat="43.29842" lon="-2.6860367"><time>2026-09-13T12:17:06Z</time></trkpt>
<trkpt lat="43.2987817" lon="-2.6859667"><time>2026-09-13T12:17:08Z</time></trkpt>
<trkpt lat="43.2991567" lon="-2.6858767"><time>2026-09-13T12:17:10Z</time></trkpt>
<trkpt lat="43.2995333" lon="-2.6857833"><time>2026-09-13T12:17:12Z</time></trkpt>
<trkpt lat="43.2999017" lon="-2.68567"><time>2026-09-13T12:17:14Z</time></trkpt>
<trkpt lat="43.3002533" lon="-2.6854967"><time>2026-09-13T12:17:16Z</time></trkpt>
<trkpt lat="43.300585" lon="-2.6852683"><time>2026-09-13T12:17:18Z</time></trkpt>
<trkpt lat="43.3008933" lon="-2.6849683"><time>2026-09-13T12:17:20Z</time></trkpt>
<trkpt lat="43.301235" lon="-2.6846283"><time>2026-09-13T12:17:22Z</time></trkpt>
<trkpt lat="43.3015683" lon="-2.6843567"><time>2026-09-13T12:17:24Z</time></trkpt>
<trkpt lat="43.3019067" lon="-2.684115"><time>2026-09-13T12:17:26Z</time></trkpt>
<trkpt lat="43.30226" lon="-2.6838867"><time>2026-09-13T12:17:28Z</time></trkpt>
<trkpt lat="43.3026283" lon="-2.683625"><time>2026-09-13T12:17:30Z</time></trkpt>
<trkpt lat="43.3030017" lon="-2.68337"><time>2026-09-13T12:17:32Z</time></trkpt>
<trkpt lat="43.30334" lon="-2.68313"><time>2026-09-13T12:17:34Z</time></trkpt>
<trkpt lat="43.303675" lon="-2.68292"><time>2026-09-13T12:17:36Z</time></trkpt>
<trkpt lat="43.3039733" lon="-2.6827317"><time>2026-09-13T12:17:38Z</time></trkpt>
<trkpt lat="43.3042217" lon="-2.682575"><time>2026-09-13T12:17:40Z</time></trkpt>
<trkpt lat="43.3044067" lon="-2.6824667"><time>2026-09-13T12:17:42Z</time></trkpt>
<trkpt lat="43.304565" lon="-2.6824117"><time>2026-09-13T12:17:44Z</time></trkpt>
<trkpt lat="43.3046917" lon="-2.68243"><time>2026-09-13T12:17:46Z</time></trkpt>
<trkpt lat="43.3048717" lon="-2.6824583"><time>2026-09-13T12:17:48Z</time></trkpt>
<trkpt lat="43.3050783" lon="-2.6824783"><time>2026-09-13T12:17:50Z</time></trkpt>
<trkpt lat="43.3052983" lon="-2.6825"><time>2026-09-13T12:17:52Z</time></trkpt>
<trkpt lat="43.3055367" lon="-2.6825317"><time>2026-09-13T12:17:54Z</time></trkpt>
<trkpt lat="43.3057867" lon="-2.682535"><time>2026-09-13T12:17:56Z</time></trkpt>
<trkpt lat="43.30599" lon="-2.6825867"><time>2026-09-13T12:17:58Z</time></trkpt>
<trkpt lat="43.3061567" lon="-2.68264"><time>2026-09-13T12:18:00Z</time></trkpt>
<trkpt lat="43.3062467" lon="-2.6827417"><time>2026-09-13T12:18:02Z</time></trkpt>
<trkpt lat="43.3062233" lon="-2.6829183"><time>2026-09-13T12:18:04Z</time></trkpt>
<trkpt lat="43.306205" lon="-2.6831183"><time>2026-09-13T12:18:06Z</time></trkpt>
<trkpt lat="43.306125" lon="-2.683385"><time>2026-09-13T12:18:08Z</time></trkpt>
<trkpt lat="43.3060333" lon="-2.6837033"><time>2026-09-13T12:18:10Z</time></trkpt>
<trkpt lat="43.3060083" lon="-2.6839717"><time>2026-09-13T12:18:12Z</time></trkpt>
<trkpt lat="43.3059733" lon="-2.6842067"><time>2026-09-13T12:18:14Z</time></trkpt>
<trkpt lat="43.30594" lon="-2.684425"><time>2026-09-13T12:18:16Z</time></trkpt>
<trkpt lat="43.3059083" lon="-2.6846067"><time>2026-09-13T12:18:18Z</time></trkpt>
<trkpt lat="43.3059267" lon="-2.68473"><time>2026-09-13T12:18:20Z</time></trkpt>
<trkpt lat="43.3059583" lon="-2.684775"><time>2026-09-13T12:18:22Z</time></trkpt>
<trkpt lat="43.3060333" lon="-2.684785"><time>2026-09-13T12:18:24Z</time></trkpt>
<trkpt lat="43.30615" lon="-2.6848183"><time>2026-09-13T12:18:26Z</time></trkpt>
<trkpt lat="43.3063267" lon="-2.68484"><time>2026-09-13T12:18:28Z</time></trkpt>
<trkpt lat="43.3065383" lon="-2.6848533"><time>2026-09-13T12:18:30Z</time></trkpt>
<trkpt lat="43.3067567" lon="-2.6848283"><time>2026-09-13T12:18:32Z</time></trkpt>
<trkpt lat="43.30692" lon="-2.684865"><time>2026-09-13T12:18:34Z</time></trkpt>
<trkpt lat="43.3070483" lon="-2.68483"><time>2026-09-13T12:18:36Z</time></trkpt>
<trkpt lat="43.30721" lon="-2.6848133"><time>2026-09-13T12:18:38Z</time></trkpt>
<trkpt lat="43.3072667" lon="-2.684755"><time>2026-09-13T12:18:40Z</time></trkpt>
<trkpt lat="43.3073017" lon="-2.684625"><time>2026-09-13T12:18:42Z</time></trkpt>
<trkpt lat="43.307335" lon="-2.6844583"><time>2026-09-13T12:18:44Z</time></trkpt>
<trkpt lat="43.3073583" lon="-2.6843017"><time>2026-09-13T12:18:46Z</time></trkpt>
<trkpt lat="43.3073883" lon="-2.6841517"><time>2026-09-13T12:18:48Z</time></trkpt>
<trkpt lat="43.3074083" lon="-2.6840467"><time>2026-09-13T12:18:50Z</time></trkpt>
<trkpt lat="43.30745" lon="-2.68399"><time>2026-09-13T12:18:52Z</time></trkpt>
<trkpt lat="43.3075" lon="-2.6839617"><time>2026-09-13T12:18:54Z</time></trkpt>
<trkpt lat="43.3075417" lon="-2.6839533"><time>2026-09-13T12:18:56Z</time></trkpt>
<trkpt lat="43.3075767" lon="-2.6839017"><time>2026-09-13T12:18:58Z</time></trkpt>
<trkpt lat="43.307595" lon="-2.683835"><time>2026-09-13T12:19:00Z</time></trkpt>
<trkpt lat="43.3076367" lon="-2.683805"><time>2026-09-13T12:19:02Z</time></trkpt>
<trkpt lat="43.3077017" lon="-2.68376"><time>2026-09-13T12:19:04Z</time></trkpt>
<trkpt lat="43.30784" lon="-2.6837567"><time>2026-09-13T12:19:06Z</time></trkpt>
<trkpt lat="43.3080017" lon="-2.683755"><time>2026-09-13T12:19:08Z</time></trkpt>
<trkpt lat="43.3081367" lon="-2.6837483"><time>2026-09-13T12:19:10Z</time></trkpt>
<trkpt lat="43.3082033" lon="-2.683765"><time>2026-09-13T12:19:12Z</time></trkpt>
<trkpt lat="43.3082683" lon="-2.683805"><time>2026-09-13T12:19:14Z</time></trkpt>
<trkpt lat="43.3083083" lon="-2.6838517"><time>2026-09-13T12:19:16Z</time></trkpt>
<trkpt lat="43.3083267" lon="-2.6839467"><time>2026-09-13T12:19:18Z</time></trkpt>
<trkpt lat="43.3083717" lon="-2.6840017"><time>2026-09-13T12:19:20Z</time></trkpt>
<trkpt lat="43.30842" lon="-2.683985"><time>2026-09-13T12:19:22Z</time></trkpt>
<trkpt lat="43.3084333" lon="-2.6839"><time>2026-09-13T12:19:24Z</time></trkpt>
<trkpt lat="43.30844" lon="-2.6837633"><time>2026-09-13T12:19:26Z</time></trkpt>
<trkpt lat="43.3083967" lon="-2.6835867"><time>2026-09-13T12:19:28Z</time></trkpt>
<trkpt lat="43.308375" lon="-2.683405"><time>2026-09-13T12:19:30Z</time></trkpt>
<trkpt lat="43.30835" lon="-2.68323"><time>2026-09-13T12:19:32Z</time></trkpt>
<trkpt lat="43.3083433" lon="-2.6831133"><time>2026-09-13T12:19:34Z</time></trkpt>
<trkpt lat="43.3083317" lon="-2.6830583"><time>2026-09-13T12:19:36Z</time></trkpt>
<trkpt lat="43.3083183" lon="-2.683085"><time>2026-09-13T12:19:38Z</time></trkpt>
<trkpt lat="43.308315" lon="-2.6830967"><time>2026-09-13T12:19:40Z</time></trkpt>
<trkpt lat="43.308315" lon="-2.6830967"><time>2026-09-13T12:19:42Z</time></trkpt>
<trkpt lat="43.308315" lon="-2.6830967"><time>2026-09-13T12:19:44Z</time></trkpt>
<trkpt lat="43.308315" lon="-2.6830967"><time>2026-09-13T12:19:46Z</time></trkpt>
<trkpt lat="43.308315" lon="-2.6830967"><time>2026-09-13T12:19:48Z</time></trkpt>
<trkpt lat="43.308315" lon="-2.6830967"><time>2026-09-13T12:19:50Z</time></trkpt>
<trkpt lat="43.308315" lon="-2.6830967"><time>2026-09-13T12:19:52Z</time></trkpt>
<trkpt lat="43.308315" lon="-2.6830967"><time>2026-09-13T12:19:54Z</time></trkpt>
<trkpt lat="43.308315" lon="-2.6830967"><time>2026-09-13T12:19:56Z</time></trkpt>
<trkpt lat="43.308315" lon="-2.6830967"><time>2026-09-13T12:19:58Z</time></trkpt>
</trkseg></trk></gpx>
